Department Name,Address Line 1,Address Zip Code,Clean Address Zip Code,Latitude,Longitude
103 RIVER ROAD CARDIOLOGY,103 River Road,07020-1016,7020,40.8237,-73.9782
2 MARINE VIEW RMTI LIVER DISEASE,2 MARINE VIEW PLZ,07030-5760,7030,40.7451,-74.0318
579 FRANKLIN RMTI LIVER DISEASE,579 FRANKLIN TURNPIKE,7450,7450,40.9823,-74.1127
579 FRANKLIN TRANS LIV,579 FRANKLIN TURNPIKE,7450,7450,40.9823,-74.1127
X_579 FRANKLIN LIVER DIS_DEACTIVATED,579 Franklin Turnpike,7450,7450,40.9823,-74.1127
X_360 ESSEX ORTHO TRAUMA_DEACTIVATED,360 ESSEX ST,7601,7601,40.8886,-74.0464
500 GRAND ORTHO JOINT,500 Grand Ave Englewood,7631,7631,40.8919,-73.9736
500 GRAND ORTHO SPINE,500 Grand Ave Englewood,7631,7631,40.8919,-73.9736
1 VALLEY HEALTH PLAZA UROLOGY,One Valley Health Plaza,07652-3628,7652,40.9452,-74.0714
140 E RIDGEWOOD AVE PEDS CARDIOLOGY,140 E Ridgewood Ave,07652-3917,7652,40.9452,-74.0714
1 VALLEY HEALTH PLAZA OTOLARYNGOLOGY,1 valley Health Plaza,7653,7653,40.9444,-74.0758
725 GRAND AVE SURG COLORECTAL,725 GRAND AVE,07657-1045,7657,40.8316,-74.015
718 TEANECK ROAD  CARDIAC SURGERY,718 Teaneck Road,7666,7666,40.8906,-74.0107
X_718 TEANECK ROAD SURG COLORECTAL_DEACTIVATED,718 Teaneck Road,7666,7666,40.8906,-74.0107
X_10 INDUSTRIAL WAY EAST RMTI LIVER DISEASE_DEACTIVATED,"10 INDUSTRIAL WAY EAST, SUITE 101",7724,7724,40.3004,-74.0751
117 STATE ROUTE 35 RMTI LIVER DISEASE,117 SR 35,07724-1885,7724,40.3004,-74.0751
1 DIAMOND HILL LIVER TRANSPLANT,1 DIAMOND HILL RD,07922-2104,7922,40.6755,-74.428
1 DIAMOND HILL RMTI LIVER DISEASE,1 DIAMOND HILL RD,07922-2104,7922,40.6755,-74.428
275 7TH AVE CTMS,275 7th Ave 12th floor,10001,10001,40.7506,-73.997
275 7TH AVE IAM,275 7th Ave 12th floor,10001,10001,40.7506,-73.997
275 7TH AVE PSYCH,275 7th Ave,10001,10001,40.7506,-73.997
45 RIVINGTON ST ACT,45 RIVINGTON ST,10002,10002,40.7157,-73.9865
45 RIVINGTON ST COMPREHENSIVE EVALUATION SERVICE,45 RIVINGTON ST,10002,10002,40.7157,-73.9865
45 RIVINGTON ST INTEGRATED OUTPATIENT SERVICE,45 RIVINGTON ST,10002,10002,40.7157,-73.9865
45 RIVINGTON ST PHP,45 Rivington Street,10002,10002,40.7157,-73.9865
45 RIVINGTON ST PRIMARY CARE,45 Rivington Street,10002,10002,40.7157,-73.9865
45 RIVINGTON ST PSYCHIATRY FPA,45 Rivington Street,10002,10002,40.7157,-73.9865
104 DELANCEY ST ALLERGY,"104 Delancey St,",10002,10002,40.7157,-73.9865
104 DELANCEY ST DERMATOLOGY,"104 Delancey St,",10002,10002,40.7157,-73.9865
104 DELANCEY ST ENT,"104 Delancey St,",10002,10002,40.7157,-73.9865
104 DELANCEY ST GASTROENTEROLOGY,"104 Delancey St,",10002,10002,40.7157,-73.9865
104 DELANCEY ST GYN,"104 Delancey St,",10002,10002,40.7157,-73.9865
104 DELANCEY ST NEUROLOGY,"104 Delancey St, New York, NY 10002",10002,10002,40.7157,-73.9865
104 DELANCEY ST ORTHOPEDICS,"104 Delancey St,",10002,10002,40.7157,-73.9865
104 DELANCEY ST PODIATRY,"104 Delancey St,",10002,10002,40.7157,-73.9865
104 DELANCEY ST PRIMARY CARE,"104 Delancey St,",10002,10002,40.7157,-73.9865
X_104 DELANCEY ST ALLERGY_DEACTIVATED,"104 Delancey St,",10002,10002,40.7157,-73.9865
X_104 DELANCEY ST DERMATOLOGY_DEACTIVATED,"104 Delancey St,",10002,10002,40.7157,-73.9865
X_104 DELANCEY ST ENT_DEACTIVATED,"104 Delancey St,",10002,10002,40.7157,-73.9865
X_104 DELANCEY ST GASTROENTEROLOGY_DEACTIVATED,"104 Delancey St,",10002,10002,40.7157,-73.9865
X_104 DELANCEY ST GYN_DEACTIVATED,"104 Delancey St,",10002,10002,40.7157,-73.9865
X_104 DELANCEY ST NEUROLOGY_DEACTIVATED,"104 Delancey St, New York, NY 10002",10002,10002,40.7157,-73.9865
X_104 DELANCEY ST ORTHOPEDICS_DEACTIVATED,"104 Delancey St,",10002,10002,40.7157,-73.9865
X_104 DELANCEY ST PODIATRY_DEACTIVATED,"104 Delancey St,",10002,10002,40.7157,-73.9865
X_104 DELANCEY ST PRIMARY CARE_DEACTIVATED,"104 Delancey St,",10002,10002,40.7157,-73.9865
104 DELANCEY ST ENDOCRINOLOGY,104 DELANCEY ST,10002-3202,10002,40.7157,-73.9865
104 DELANCEY ST OPHTHALMOLOGY,104 DELANCEY ST,10002-3202,10002,40.7157,-73.9865
108 DELANCEY ST DERMATOLOGY,108 DELANCEY ST,10002-3202,10002,40.7157,-73.9865
10 NATHAN PERL PL AIMS,10 Nathan D Perlman Place,10003,10003,40.7317,-73.9891
10 NATHAN PERL PL AIMS ADMISSIONS,10 Nathan D Perlman Place,10003,10003,40.7317,-73.9891
10 NATHAN PERL PL POSA,10 Nathan D Perlman Place,10003,10003,40.7317,-73.9891
10 UNION SQ E CARDIO,"10 Union Square East,",10003,10003,40.7317,-73.9891
10 UNION SQ E DERM CLINIC,10 Union Square East 3rd Floor Suite 3C,10003,10003,40.7317,-73.9891
10 UNION SQ E DERMATOLOGY,10 Union Sq E 4th Floor Suite 4J,10003,10003,40.7317,-73.9891
10 UNION SQ E ENDOCRINOLOGY,10 Union Sq East,10003,10003,40.7317,-73.9891
10 UNION SQ E ENT,10 UNION SQ E,10003,10003,40.7317,-73.9891
10 UNION SQ E ENT OMS,10 UNION SQ E,10003,10003,40.7317,-73.9891
10 UNION SQ E HEM ONC,"10 Union Square E,",10003,10003,40.7317,-73.9891
10 UNION SQ E HEM ONC INFUSION,10 Union Square E,10003,10003,40.7317,-73.9891
10 UNION SQ E INFECTIOUS DISEASE,10 UNION SQ E,10003,10003,40.7317,-73.9891
10 UNION SQ E MFM CLINIC,10 Union Square E,10003,10003,40.7317,-73.9891
10 UNION SQ E OB/GYN,10 Union Square E,10003,10003,40.7317,-73.9891
10 UNION SQ E OB/GYN CLINIC,10 Union Square E,10003,10003,40.7317,-73.9891
10 UNION SQ E OCCUPATION PHYS,10 Union Square East,10003,10003,40.7317,-73.9891
10 UNION SQ E ORTHO GENERAL,10 Union Square East,10003,10003,40.7317,-73.9891
10 UNION SQ E ORTHO HAND SURGERY,10 Union Square East,10003,10003,40.7317,-73.9891
10 UNION SQ E ORTHO JOINT,10 Union Square East,10003,10003,40.7317,-73.9891
10 UNION SQ E ORTHO SPINE,10 Union Square East,10003,10003,40.7317,-73.9891
10 UNION SQ E ORTHO SPORTS MED,10 Union Square East,10003,10003,40.7317,-73.9891
10 UNION SQ E PEDIATRIC SPECIALTIES,10 Union Square E,10003,10003,40.7317,-73.9891
10 UNION SQ E PEDS ALLERGY,10 Union Square E,10003,10003,40.7317,-73.9891
10 UNION SQ E PEDS CARDIO,10 Union Square E,10003,10003,40.7317,-73.9891
10 UNION SQ E PEDS ENDO,10 Union Square E,10003,10003,40.7317,-73.9891
10 UNION SQ E PEDS GEN,10 Union Square E,10003,10003,40.7317,-73.9891
10 UNION SQ E PEDS GI,10 Union Square E,10003,10003,40.7317,-73.9891
10 UNION SQ E PEDS PULM,10 Union Square E,10003,10003,40.7317,-73.9891
10 UNION SQ E PHYSIATRY,10 Union Square East,10003,10003,40.7317,-73.9891
10 UNION SQ E PHYSICAL THERAPY,10 Union Square East,10003,10003,40.7317,-73.9891
10 UNION SQ E PODIATRY,10 Union Square East,10003,10003,40.7317,-73.9891
10 UNION SQ E PODIATRY CLINIC,10 Union Square East,10003,10003,40.7317,-73.9891
10 UNION SQ E PST,10 Union Square East,10003,10003,40.7317,-73.9891
10 UNION SQ E RESP,"10 Union Square East,",10003,10003,40.7317,-73.9891
10 UNION SQ E SOCIAL WORK,10 Union Square E,10003,10003,40.7317,-73.9891
10 UNION SQ E  SPEECH THERAPY,10 UNION SQ E,10003,10003,40.7317,-73.9891
10 UNION SQ E SURG BREAST,"10 Union Square E,",10003,10003,40.7317,-73.9891
10 UNION SQ E SURG COL,10 Union Square E,10003,10003,40.7317,-73.9891
10 UNION SQ E SURG GEN,10 Union Square E,10003,10003,40.7317,-73.9891
10 UNION SQ E SURG ONC,10 Union Square E,10003,10003,40.7317,-73.9891
10 UNION SQ E SURG PLASTIC,10 Union Square E,10003,10003,40.7317,-73.9891
10 UNION SQ E SURG VASC,10 Union Square E,10003,10003,40.7317,-73.9891
10 UNION SQ E SURG VASCULAR LAB,10 Union Square E,10003,10003,40.7317,-73.9891
10 UNION SQ E THERAPEUTIC INFUSION,10 Union Square E,10003,10003,40.7317,-73.9891
10 UNION SQ E URGENT CARE,10 Union Square,10003,10003,40.7317,-73.9891
10 UNION SQ E UROLOGY,10 Union Square East,10003,10003,40.7317,-73.9891
10 UNION SQ E VEIN CLINIC,"10 Union Square East,",10003,10003,40.7317,-73.9891
10 UNION SQ ECHO,"10 Union Square East, Suite 2B",10003,10003,40.7317,-73.9891
10 UNION SQ ENDO THYROID INS,"10 Union Square East,",10003,10003,40.7317,-73.9891
10 UNION SQ ENDO WEIGHT MGT,10 Union Square East,10003,10003,40.7317,-73.9891
10 UNION SQ GASTROENTEROLOGY,10 Union Square East,10003,10003,40.7317,-73.9891
10 UNION SQ PFT,"10 Union Square East,",10003,10003,40.7317,-73.9891
10 UNION SQ RHEUMATOLOGY,10 Union Square East,10003,10003,40.7317,-73.9891
10 UNION SQ SIGN LANGUAGE,10 Union Square East,10003,10003,40.7317,-73.9891
10 UNION SQ VASC PROC,"10 Union Square East, Suite 2B",10003,10003,40.7317,-73.9891
230 2ND AVE SURGERY,230 Second Ave,10003,10003,40.7317,-73.9891
281 1ST AVE GENERAL MED,i81 1ST AVE - 11TH FLOOR,10003,10003,40.7317,-73.9891
317 E 17TH WELLNESS PRACTICE,317 EAST 17TH STREET,10003,10003,40.7317,-73.9891
340 E 17TH ST FAMILY PLANNING,340 E 17th Street,10003,10003,40.7317,-73.9891
MSBI CATH LAB,281 1st Ave,10003,10003,40.7317,-73.9891
MSBI ECHO,281 1st Ave,10003,10003,40.7317,-73.9891
MSBI ECT,281 1st Ave,10003,10003,40.7317,-73.9891
MSBI EP LAB,281 1st Ave,10003,10003,40.7317,-73.9891
MSBI FAMILY PLANNING OR,340 E 17th Street,10003,10003,40.7317,-73.9891
MSBI INTERVENTIONAL RADIOLOGY,281 1st Ave,10003,10003,40.7317,-73.9891
MSBI INTERVENTIONAL RADIOLOGY 2 FL,281 1st Ave,10003,10003,40.7317,-73.9891
MSBI NUCLEAR CARDIOLOGY,281 1st Ave,10003,10003,40.7317,-73.9891
MSBI PACU,281 1st Avenue,10003,10003,40.7317,-73.9891
X_10 NATHAN PERL PL ACT_DEACTIVATED,10 Nathan D Perlman Place,10003,10003,40.7317,-73.9891
X_10 NATHAN PERL PL AIMS ADMISSIONS_DEACTIVATED,10 Nathan D Perlman Place,10003,10003,40.7317,-73.9891
X_10 NATHAN PERL PL AIMS_DEACTIVATED,10 Nathan D Perlman Place,10003,10003,40.7317,-73.9891
X_10 NATHAN PERL PL POSA_DEACTIVATED,10 Nathan D Perlman Place,10003,10003,40.7317,-73.9891
X_10 UNION SQ E ALLERGY_DEACTIVATED,10 Union Square East,10003,10003,40.7317,-73.9891
X_10 UNION SQ E CARDIO_DEACTIVATED,"10 Union Square East, Suite 2B",10003,10003,40.7317,-73.9891
X_10 UNION SQ E CYSTIC FIBROSIS_DEACTIVATED,10 Union Sq E,10003,10003,40.7317,-73.9891
X_10 UNION SQ E DERM CLINIC_DEACTIVATED,10 Union Square East,10003,10003,40.7317,-73.9891
X_10 UNION SQ E DERMATOLOGY_DEACTIVATED,10 Union Square East,10003,10003,40.7317,-73.9891
X_10 UNION SQ E ENDOCRINOLOGY_DEACTIVATED,10 Union Sq E,10003,10003,40.7317,-73.9891
X_10 UNION SQ E ENT OMS_DEACTIVATED,10 UNION SQ E,10003,10003,40.7317,-73.9891
X_10 UNION SQ E ENT_DEACTIVATED,10 UNION SQ E,10003,10003,40.7317,-73.9891
X_10 UNION SQ E HEM ONC INFUSION_DEACTIVATED,10 Union Square E,10003,10003,40.7317,-73.9891
X_10 UNION SQ E HEM ONC_DEACTIVATED,10 Union Square E,10003,10003,40.7317,-73.9891
X_10 UNION SQ E INFECTIOUS DISEASE_DEACTIVATED,10 UNION SQ E,10003,10003,40.7317,-73.9891
X_10 UNION SQ E MFM CLINIC_DEACTIVATED,10 Union Square E,10003,10003,40.7317,-73.9891
X_10 UNION SQ E OB/GYN_DEACTIVATED,10 Union Square E,10003,10003,40.7317,-73.9891
X_10 UNION SQ E OBGYN CLINIC_DEACTIVATED,10 Union Square E,10003,10003,40.7317,-73.9891
X_10 UNION SQ E OCCUPATION PHYS_DEACTIVATED,10 Union Square East,10003,10003,40.7317,-73.9891
X_10 UNION SQ E ORTHO JOINT_DEACTIVATED,10 Union Square East,10003,10003,40.7317,-73.9891
X_10 UNION SQ E ORTHO SPINE_DEACTIVATED,10 Union Square East,10003,10003,40.7317,-73.9891
X_10 UNION SQ E ORTHO SPORTS MED_DEACTIVATED,10 Union Square East,10003,10003,40.7317,-73.9891
X_10 UNION SQ E PEDS ALLERGY_DEACTIVATED,10 Union Square E,10003,10003,40.7317,-73.9891
X_10 UNION SQ E PEDS CARDIO_DEACTIVATED,10 Union Square E,10003,10003,40.7317,-73.9891
X_10 UNION SQ E PEDS ENDO_DEACTIVATED,10 Union Square E,10003,10003,40.7317,-73.9891
X_10 UNION SQ E PEDS GEN_DEACTIVATED,10 Union Square E,10003,10003,40.7317,-73.9891
X_10 UNION SQ E PEDS GI_DEACTIVATED,10 Union Square E,10003,10003,40.7317,-73.9891
X_10 UNION SQ E PEDS NEPHROLOGY_DEACTIVATED,10 Union Square E,10003,10003,40.7317,-73.9891
X_10 UNION SQ E PEDS PULM_DEACTIVATED,10 Union Square E,10003,10003,40.7317,-73.9891
X_10 UNION SQ E PFT_DEACTIVATED,"10 Union Square East,",10003,10003,40.7317,-73.9891
X_10 UNION SQ E PHYSICAL THERAPY_DEACTIVATED,10 Union Square East,10003,10003,40.7317,-73.9891
X_10 UNION SQ E PODIATRY CLINIC_DEACTIVATED,10 Union Square East,10003,10003,40.7317,-73.9891
X_10 UNION SQ E PODIATRY_DEACTIVATED,10 Union Square East,10003,10003,40.7317,-73.9891
X_10 UNION SQ E PST_DEACTIVATED,10 Union Square East,10003,10003,40.7317,-73.9891
X_10 UNION SQ E RESP_DEACTIVATED,"10 Union Square East,",10003,10003,40.7317,-73.9891
X_10 UNION SQ E RHEUMATOLOGY_DEACTIVATED,10 UNION SQ E,10003,10003,40.7317,-73.9891
X_10 UNION SQ E SOCIAL WORK_DEACTIVATED,10 Union Square E,10003,10003,40.7317,-73.9891
X_10 UNION SQ E SPEECH THERAPY_DEACTIVATED,10 UNION SQ E,10003,10003,40.7317,-73.9891
X_10 UNION SQ E SURG BREAST_DEACTIVATED,10 Union Square E,10003,10003,40.7317,-73.9891
X_10 UNION SQ E SURG COLORECTAL_DEACTIVATED,10 Union Square E,10003,10003,40.7317,-73.9891
X_10 UNION SQ E SURG GENERAL_DEACTIVATED,10 Union Square E,10003,10003,40.7317,-73.9891
X_10 UNION SQ E SURG ONCOLOGY_DEACTIVATED,10 Union Square E,10003,10003,40.7317,-73.9891
X_10 UNION SQ E SURG PLASTIC_DEACTIVATED,10 Union Square E,10003,10003,40.7317,-73.9891
X_10 UNION SQ E SURG VASCULAR LAB_DEACTIVATED,10 Union Square E,10003,10003,40.7317,-73.9891
X_10 UNION SQ E SURG VASCULAR_DEACTIVATED,10 Union Square E,10003,10003,40.7317,-73.9891
X_10 UNION SQ E THERAPEUTIC INFUSION_DEACTIVATED,10 Union Square E,10003,10003,40.7317,-73.9891
X_10 UNION SQ E UROLOGY_DEACTIVATED,10 Union Square East,10003,10003,40.7317,-73.9891
X_10 UNION SQ E VEIN CLINIC_DEACTIVATED,"10 Union Square East,",10003,10003,40.7317,-73.9891
X_10 UNION SQ ECHO_DEACTIVATED,"10 Union Square East, Suite 2B",10003,10003,40.7317,-73.9891
X_10 UNION SQ ENDO THYROID INS_DEACTIVATED,10 Union Square East,10003,10003,40.7317,-73.9891
X_10 UNION SQ ENDO WEIGHT MGT_DEACTIVATED,10 Union Square East,10003,10003,40.7317,-73.9891
X_10 UNION SQ GASTROENTEROLOGY_DEACTIVATED,10 Union Square East,10003,10003,40.7317,-73.9891
X_10 UNION SQ INFECTIOUS DISEASE,10 Union Square East,10003,10003,40.7317,-73.9891
X_10 UNION SQ PHYSIATRY_DEACTIVATED,10 Union Square East,10003,10003,40.7317,-73.9891
X_10 UNION SQ SIGN LANGUAGE_DEACTIVATED,10 Union Square East,10003,10003,40.7317,-73.9891
X_10 UNION SQ VASC PROC_DEACTIVATED,"10 Union Square East, Suite 2B",10003,10003,40.7317,-73.9891
X_67 IRVING PLACE CARDIOLOGY_DEACTIVATED,67 IRVING PLACE,10003,10003,40.7317,-73.9891
X_281 1ST AVE DIABETES_DEACTIVATED,281 1ST AVE 4TH FLOOR,10003,10003,40.7317,-73.9891
X_281 1ST AVE GENERAL MED_DEACTIVATED,281 1ST AVE - 11TH FLOOR,10003,10003,40.7317,-73.9891
X_317 E 17TH ST PULMONARY_DEACTIVATED,317 EAST 17TH STREET,10003,10003,40.7317,-73.9891
X_317 E 17TH ST RHEUMATOLOGY_DEACTIVATED,317 EAST 17TH STREET,10003,10003,40.7317,-73.9891
X_317 E 17TH ST TESTING CENTER_DEACTIVATED,317 EAST 17TH STREET,10003,10003,40.7317,-73.9891
X_317 E 17TH ST WELLNESS PRACTICE_DEACTIVATED,317 EAST 17TH STREET,10003,10003,40.7317,-73.9891
X_340 E 17TH ST FAMILY PLANNING_DEACTIVATED,340 E 17th Street,10003,10003,40.7317,-73.9891
X_MSBI CATH LAB_DEACTIVATED,281 1st Ave,10003,10003,40.7317,-73.9891
X_MSBI FAMILY PLANNING OR_DEACTIVATED,340 E 17th Street,10003,10003,40.7317,-73.9891
X_NATHAN PEARLMAN DRIVE EVALUATION CENTER_DEACTIVATED,10 Nathan D Perlman Place,10003,10003,40.7317,-73.9891
10 UNION SQ E GERI HOME CERTS,10 Union Square E,10003-2925,10003,40.7317,-73.9891
281 1ST AVE OCCUPATIONAL HEALTH,"281 FIRST AVENUE,",10003-2925,10003,40.7317,-73.9891
281 1ST AVE PSYCH MCT,281 1ST AVE,10003-2925,10003,40.7317,-73.9891
340 E 17TH ST EHS,340 E 17TH ST,10003-2925,10003,40.7317,-73.9891
X_281 1ST AVE OCCUPATIONAL HEALTH_DEACTIVATED,"281 FIRST AVENUE,",10003-2925,10003,40.7317,-73.9891
X_281 1ST AVE PSYCH MCT_DEACTIVATED,281 1ST AVE,10003-2925,10003,40.7317,-73.9891
X_MSBI ECHO_DEACTIVATED,281 1st Ave,10003-2925,10003,40.7317,-73.9891
X_MSBI ECT_DEACTIVATED,281 1st Ave,10003-2925,10003,40.7317,-73.9891
X_MSBI EP LAB_DEACTIVATED,281 1st Ave,10003-2925,10003,40.7317,-73.9891
X_MSBI INTERVENTIONAL RADIOLOGY 2 FL_DEACTIVATED,281 1st Ave,10003-2925,10003,40.7317,-73.9891
X_MSBI INTERVENTIONAL RADIOLOGY_DEACTIVATED,281 1st Ave,10003-2925,10003,40.7317,-73.9891
X_MSBI NUCLEAR CARDIOLOGY_DEACTIVATED,281 1st Ave,10003-2925,10003,40.7317,-73.9891
X_281 1ST AVE CARDIOLOGY_DEACTIVATED,FIRST AVE AT 16TH STREET,10003-3105,10003,40.7317,-73.9891
 X_10 UNION SQ E TESTING CENTER_DEACTIVATED,10 Union Square E,10003-3314,10003,40.7317,-73.9891
10 UNION SQ ALLERGY,"10 Union Square East, 2nd Floor",10003-3314,10003,40.7317,-73.9891
10 UNION SQ E 3N LAB,10 Union Square E,10003-3314,10003,40.7317,-73.9891
10 UNION SQ E COVID 19 COE,10 Union Square E,10003-3314,10003,40.7317,-73.9891
10 UNION SQ E FINE NEEDLE ASPIRATION,"10 Union Square East, Suite 4B",10003-3314,10003,40.7317,-73.9891
10 UNION SQ E GERIATRICS,"10 Union Square E, Suite 3G",10003-3314,10003,40.7317,-73.9891
10 UNION SQ E HOME SLEEP STUDIES,10 UNION SQ E,10003-3314,10003,40.7317,-73.9891
10 UNION SQ E NEUROSURGERY 5P,"10 Union Square East, Suite 5P",10003-3314,10003,40.7317,-73.9891
10 UNION SQ E OCCUPATIONAL THERAPY ORTHO,10 UNION SQ E,10003-3314,10003,40.7317,-73.9891
10 UNION SQ E OPHTHALMOLOGY,"10 Union Square E, New York",10003-3314,10003,40.7317,-73.9891
10 UNION SQ E PEDS OCCUPATIONAL THERAPY,10 UNION SQ E,10003-3314,10003,40.7317,-73.9891
10 UNION SQ E PEDS PHYSICAL THERAPY,10 Union Square,10003-3314,10003,40.7317,-73.9891
10 UNION SQ E PEDS REHAB MEDICINE,10 Union Square,10003-3314,10003,40.7317,-73.9891
10 UNION SQ E PRIMARY CARE,10 Union Square East,10003-3314,10003,40.7317,-73.9891
10 UNION SQ E REHAB PERFORMANCE 360,10 UNION SQ E,10003-3314,10003,40.7317,-73.9891
10 UNION SQ E UROLOGY RAD,10 UNION SQ E # 3/3P,10003-3314,10003,40.7317,-73.9891
10 UNION SQ MOVEMENT DISORDER,"10 Union Square East, Suite 5H",10003-3314,10003,40.7317,-73.9891
10 UNION SQ NEPHROLOGY,10 Union Square East,10003-3314,10003,40.7317,-73.9891
10 UNION SQ NEUROLOGY,"10 Union Square East, Suite 5D",10003-3314,10003,40.7317,-73.9891
10 UNION SQ NEUROPSYCH,"10 Union Square East, Suite 5H",10003-3314,10003,40.7317,-73.9891
10 UNION SQ NEUROSURGERY,"10 Union Square East, Suite 5E",10003-3314,10003,40.7317,-73.9891
10 UNION SQ NUCLEAR CARDIOLOGY,10 Union Square East,10003-3314,10003,40.7317,-73.9891
10 UNION SQ PEDIATRIC NEUROLOGY,"10 Union Square East, Suite 5M",10003-3314,10003,40.7317,-73.9891
X_10 UNION SQ ALLERGY_DEACTIVATED,"10 Union Square East, 2nd Floor",10003-3314,10003,40.7317,-73.9891
X_10 UNION SQ E 3N LAB_DEACTIVATED,10 Union Square E,10003-3314,10003,40.7317,-73.9891
X_10 UNION SQ E COVID-19 CENTER OF EXCELLENCE_DEACTIVATED,10 Union Square E,10003-3314,10003,40.7317,-73.9891
X_10 UNION SQ E ENDOCRINOLOGY_DEACTIVATED,10 Union Sq E,10003-3314,10003,40.7317,-73.9891
X_10 UNION SQ E FINE NEEDLE ASPIRATION_DEACTIVATED,"10 Union Square East, Suite 4H",10003-3314,10003,40.7317,-73.9891
X_10 UNION SQ E GERIATRICS_DEACTIVATED,10 Union Square E,10003-3314,10003,40.7317,-73.9891
X_10 UNION SQ E  PRIMARY CARE_DEACTIVATED,10 Union Square East,10003-3314,10003,40.7317,-73.9891
X_10 UNION SQ E TESTING CENTER_DEACTIVATED,10 Union Square E,10003-3314,10003,40.7317,-73.9891
X_10 UNION SQ ENDO THYROID INS_DEACTIVATED,"10 Union Square East,",10003-3314,10003,40.7317,-73.9891
X_10 UNION SQ ENDO WEIGHT MGT_DEACTIVATED,10 Union Square East,10003-3314,10003,40.7317,-73.9891
X_10 UNION SQ MOVEMENT DISORDER_DEACTIVATED,"10 Union Square East, Suite 5H",10003-3314,10003,40.7317,-73.9891
X_10 UNION SQ NEPHROLOGY_DEACTIVATED,10 Union Square East,10003-3314,10003,40.7317,-73.9891
X_10 UNION SQ NEUROLOGY_DEACTIVATED,"10 Union Square East, Suite 5D",10003-3314,10003,40.7317,-73.9891
X_10 UNION SQ NEUROPSYCH_DEACTIVATED,"10 Union Square East, Suite 5H",10003-3314,10003,40.7317,-73.9891
X_10 UNION SQ NEUROSURGERY 5P_DEACTIVATED,"10 Union Square East, Suite 5P",10003-3314,10003,40.7317,-73.9891
X_10 UNION SQ NEUROSURGERY_DEACTIVATED,"10 Union Square East, Suite 5E",10003-3314,10003,40.7317,-73.9891
X_10 UNION SQ PEDIATRIC NEUROLOGY_DEACTIVATED,"10 Union Square East, Suite 5G",10003-3314,10003,40.7317,-73.9891
317 E 17TH ST OCCUPATIONAL HEALTH,317 E 17TH ST,10003-3804,10003,40.7317,-73.9891
X_10 NATHAN PERL PL IOP_DEACTIVATED,10 Nathan D Perlman Place,10003-3841,10003,40.7317,-73.9891
MSBI CATH LAB,16th St  1st Ave,10003-3851,10003,40.7317,-73.9891
MSBI EP LAB,16th St  1st Ave,10003-3851,10003,40.7317,-73.9891
255 GREENWICH ST DERMATOLOGY,255 GREENWICH ST,10007,10007,40.7137,-74.0094
255 GREENWICH ST INTERNAL MEDICINE,255 GREENWICH ST,10007,10007,40.7137,-74.0094
255 GREENWICH ST OBGYN,255 GREENWICH ST,10007,10007,40.7137,-74.0094
255 GREENWICH ST ORTHOPEDICS,255 GREENWICH ST,10007,10007,40.7137,-74.0094
X_255 GREENWICH ST DERMATOLOGY_DEACTIVATED,255 GREENWICH ST,10007,10007,40.7137,-74.0094
X_255 GREENWICH ST INTERNAL MEDICINE_DEACTIVATED,255 GREENWICH ST,10007,10007,40.7137,-74.0094
X_255 GREENWICH ST OBGYN_DEACTIVATED,255 GREENWICH ST,10007,10007,40.7137,-74.0094
X_255 GREENWICH ST ORTHOPEDICS_DEACTIVATED,255 GREENWICH ST,10007,10007,40.7137,-74.0094
X_255 GREENWICH ST UROLOGY_DEACTIVATED,255 GREENWICH ST,10007,10007,40.7137,-74.0094
518 E 20TH CARDIOLOGY,518 EAST 20TH STREET,10009-8330,10009,40.7265,-73.979
518 E 20TH DERMATOLOGY,518 EAST 20TH STREET,10009-8330,10009,40.7265,-73.979
518 E 20TH FAMILY MED,518 EAST 20TH STREET,10009-8330,10009,40.7265,-73.979
518 E 20TH GASTROENTEROLOGY,518 EAST 20TH STREET,10009-8330,10009,40.7265,-73.979
518 E 20TH PODIATRY,518 EAST 20TH STREET,10009-8330,10009,40.7265,-73.979
X_518 E 20TH CARDIOLOGY_DEACTIVATED,518 EAST 20TH STREET,10009-8330,10009,40.7265,-73.979
X_518 E 20TH DERMATOLOGY_DEACTIVATED,518 EAST 20TH STREET,10009-8330,10009,40.7265,-73.979
X_518 E 20TH FAMILY MEDICINE_DEACTIVATED,518 EAST 20TH STREET,10009-8330,10009,40.7265,-73.979
X_518 E 20TH INTERNAL MEDICINE_DEACTIVATED,518 EAST 20TH STREET,10009-8330,10009,40.7265,-73.979
X_518 E 20TH ORTHOPEDICS_DEACTIVATED,518 EAST 20TH STREET,10009-8330,10009,40.7265,-73.979
X_518 E 20TH PODIATRY_DEACTIVATED,518 EAST 20TH STREET,10009-8330,10009,40.7265,-73.979
380 2ND AVE ENDOSCOPY,380 2ND AVENUE,10010,10010,40.7389,-73.9811
X_147 E 26TH ST CARDIOLOGY_DEACTIVATED,147 EAST 26TH STREET,10010,10010,40.7389,-73.9811
X_380 2ND AVE ENDOSCOPY_DEACTIVATED,380 2ND AVENUE,10010,10010,40.7389,-73.9811
138 E 26TH ST OCCUPATIONAL HEALTH,138 E 26TH ST,10010-1843,10010,40.7389,-73.9811
X_138 E 26TH ST OCCUPATIONAL HEALTH_DEACTIVATED,138 E 26TH ST,10010-1843,10010,40.7389,-73.9811
52 W 8TH ST FAMILY MEDICINE,52 WEST 8TH ST,10011,10011,40.7414,-74.0002
52 W 8TH ST INTERNAL MEDICINE,52 WEST 8TH ST,10011,10011,40.7414,-74.0002
52 W 8TH ST OBGYN,52 WEST 8TH ST,10011,10011,40.7414,-74.0002
226 W 14TH ST ALLERGY,226 WEST 14TH ST,10011,10011,40.7414,-74.0002
226 W 14TH ST CARDIOLOGY,226 WEST 14TH ST,10011,10011,40.7414,-74.0002
226 W 14TH ST ENDOCRINOLOGY,226 WEST 14TH ST,10011,10011,40.7414,-74.0002
226 W 14TH ST INTERNAL MEDICINE,226 WEST 14TH ST,10011,10011,40.7414,-74.0002
226 W 14TH ST PULMONOLOGY,226 WEST 14TH ST,10011,10011,40.7414,-74.0002
309 W 23RD ST DERMATOLOGY,309 West 23rd Street,10011,10011,40.7414,-74.0002
309 W 23RD ST ENDOCRINOLOGY,"309 West 23rd Street, 2nd Fl",10011,10011,40.7414,-74.0002
309 W 23RD ST FAMILY MEDICINE,"309 West 23rd Street, 2nd Fl",10011,10011,40.7414,-74.0002
309 W 23RD ST GASTROENTOROLOGY,"309 West 23rd Street, 2nd Fl",10011,10011,40.7414,-74.0002
309 W 23RD ST INTERNAL MEDICINE,"309 West 23rd Street, 2nd Fl",10011,10011,40.7414,-74.0002
309 W 23RD ST NEUROLOGY,"309 West 23rd Street, 3rd Fl",10011,10011,40.7414,-74.0002
309 W 23RD ST OBGYN,"309 West 23rd Street, 2nd Fl",10011,10011,40.7414,-74.0002
309 W 23RD ST OPTHALMOLOGY,"309 West 23rd Street, 3rd Fl",10011,10011,40.7414,-74.0002
309 W 23RD ST ORTHOPEDICS,"309 West 23rd Street, 3rd Fl",10011,10011,40.7414,-74.0002
309 W 23RD ST PAIN FLUOROSCOPY,"309 West 23rd Street, 3rd Fl",10011,10011,40.7414,-74.0002
309 W 23RD ST PODIATRY,"309 West 23rd Street, 3rd Fl",10011,10011,40.7414,-74.0002
309 W 23RD ST REHAB FLUOROSCOPY,"309 West 23rd Street, 3rd Fl",10011,10011,40.7414,-74.0002
325 W 15TH ST BREAST SURG,325 W 15TH STREET,10011,10011,40.7414,-74.0002
325 W 15TH ST DERMATOLOGY,325 W 15th Street,10011,10011,40.7414,-74.0002
325 W 15TH ST DERMATOLOGY CLINIC,325 W 15th Street,10011,10011,40.7414,-74.0002
325 W 15TH ST GYN ONCOLOGY,325 W.15th Street,10011,10011,40.7414,-74.0002
325 W 15TH ST HEM ONC,325 W. 15th Street,10011,10011,40.7414,-74.0002
325 W 15TH ST HEM ONC INFUSION,325 W 15th Street,10011,10011,40.7414,-74.0002
325 W 15TH ST OBGYN,325 W 15th Street,10011,10011,40.7414,-74.0002
325 W 15TH ST ONCOLOGY LAB,325 W 15th Street,10011,10011,40.7414,-74.0002
325 W 15TH ST PALLIATIVE CARE,325 W 15th Street,10011,10011,40.7414,-74.0002
325 W 15TH ST PSYCH ONC,325 W 15th Street,10011,10011,40.7414,-74.0002
325 W 15TH ST SURG PLASTIC,325 W 15th Street,10011,10011,40.7414,-74.0002
325 W 15TH ST SURG THORACIC,325 W 15th Street,10011,10011,40.7414,-74.0002
325 W 15TH ST THERAPEUTIC INFUSION,325 W. 15th Street,10011,10011,40.7414,-74.0002
325 W 15TH ST THERAPEUTIC LAB,325 W 15th Street,10011,10011,40.7414,-74.0002
HOSP SBH BREC MEDICAL,351 West 18 Street,10011,10011,40.7414,-74.0002
X_52 W 8TH ST FAMILY MEDICINE_DEACTIVATED,52 WEST 8TH ST,10011,10011,40.7414,-74.0002
X_52 W 8TH ST INTERNAL MEDICINE_DEACTIVATED,52 WEST 8TH ST,10011,10011,40.7414,-74.0002
X_52 W 8TH ST OBGYN_DEACTIVATED,52 WEST 8TH ST,10011,10011,40.7414,-74.0002
X_226 W 14TH ST ALLERGY_DEACTIVATED,226 WEST 14TH ST,10011,10011,40.7414,-74.0002
X_226 W 14TH ST BHS DEPARTMENT OF CORRECTION_DEACTIVATED,226 W. 14th Street,10011,10011,40.7414,-74.0002
X_226 W 14TH ST CARDIOLOGY_DEACTIVATED,226 WEST 14TH ST,10011,10011,40.7414,-74.0002
X_226 W 14TH ST ENDOCRINOLOGY_DEACTIVATED,226 WEST 14TH ST,10011,10011,40.7414,-74.0002
X_226 W 14TH ST INTERNAL MEDICINE_DEACTIVATED,226 WEST 14TH ST,10011,10011,40.7414,-74.0002
X_226 W 14TH ST PULMONOLOGY_DEACTIVATED,226 WEST 14TH ST,10011,10011,40.7414,-74.0002
X_309 W 23RD OPTHALMOLOGY_DEACTIVATED,"309 West 23rd Street, 3rd Fl",10011,10011,40.7414,-74.0002
X_309 W 23RD ST BHS DEPARTMENT OF CORRECTION_DEACTIVATED,309 W. 23rd Street,10011,10011,40.7414,-74.0002
X_309 W 23RD ST CARDIOLOGY_DEACTIVATED,"309 West 23rd Street, 2nd Fl",10011,10011,40.7414,-74.0002
X_309 W 23RD ST DERMATOLOGY_DEACTIVATED,309 West 23rd Street,10011,10011,40.7414,-74.0002
X_309 W 23RD ST ENDOCRINOLOGY_DEACTIVATED,"309 West 23rd Street, 2nd Fl",10011,10011,40.7414,-74.0002
X_309 W 23RD ST FAMILY MEDICINE_DEACTIVATED,"309 West 23rd Street, 2nd Fl",10011,10011,40.7414,-74.0002
X_309 W 23RD ST GASTROENTEROLOGY_DEACTIVATED,"309 West 23rd Street, 2nd Fl",10011,10011,40.7414,-74.0002
X_309 W 23RD ST INTERNAL MED_DEACTIVATED,"309 West 23rd Street, 2nd Fl",10011,10011,40.7414,-74.0002
X_309 W 23RD ST NEUROLOGY_DEACTIVATED,"309 West 23rd Street, 2nd Fl",10011,10011,40.7414,-74.0002
X_309 W 23RD ST OBGYN_DEACTIVATED,"309 West 23rd Street, 2nd Fl",10011,10011,40.7414,-74.0002
X_309 W 23RD ST ORTHOPEDICS_DEACTIVATED,"309 West 23rd Street, 3rd Fl",10011,10011,40.7414,-74.0002
X_309 W 23RD ST PAIN FLUOROSCOPY_DEACTIVATED,"309 West 23rd Street, 3rd Fl",10011,10011,40.7414,-74.0002
X_309 W 23RD ST PAIN MANAGEMENT,"309 West 23rd Street, 3rd Fl",10011,10011,40.7414,-74.0002
X_309 W 23RD ST PAIN MANAGEMENT_DEACTIVATED,"309 West 23rd Street, 3rd Fl",10011,10011,40.7414,-74.0002
X_309 W 23RD ST PODIATRY_DEACTIVATED,"309 West 23rd Street, 3rd Fl",10011,10011,40.7414,-74.0002
X_309 W 23RD ST REHAB FLUOROSCOPY_DEACTIVATED,"309 West 23rd Street, 3rd Fl",10011,10011,40.7414,-74.0002
X_325 W 15TH ST BREAST SURG_DEACTIVATED,325 W 15TH STREET,10011,10011,40.7414,-74.0002
X_325 W 15TH ST DERMATOLOGY CLINIC_DEACTIVATED,325 W 15th Street,10011,10011,40.7414,-74.0002
X_325 W 15TH ST DERMATOLOGY_DEACTIVATED,325 W 15th Street,10011,10011,40.7414,-74.0002
X_325 W 15TH ST GYN ONCOLOGY_DEACTIVATED,325 W.15th Street,10011,10011,40.7414,-74.0002
X_325 W 15TH ST HEM ONC INFUSION_DEACTIVATED,325 W 15th Street,10011,10011,40.7414,-74.0002
X_325 W 15TH ST HEM ONC_DEACTIVATED,325 W 15th Street,10011,10011,40.7414,-74.0002
X_325 W 15TH ST OBGYN_DEACTIVATED,325 W 15th Street,10011,10011,40.7414,-74.0002
X_325 W 15TH ST ONCOLOGY LAB_DEACTIVATED,325 W 15th Street,10011,10011,40.7414,-74.0002
X_325 W 15TH ST PALLIATIVE CARE_DEACTIVATED,325 W 15th Street,10011,10011,40.7414,-74.0002
X_325 W 15TH ST PSYCH ONC_DEACTIVATED,325 W 15th Street,10011,10011,40.7414,-74.0002
X_325 W 15TH ST SURG PLASTIC_DEACTIVATED,325 W 15th Street,10011,10011,40.7414,-74.0002
X_325 W 15TH ST SURG THORACIC_DEACTIVATED,325 W 15th Street,10011,10011,40.7414,-74.0002
X_325 W 15TH ST THERAPEUTIC INFUSION_DEACTIVATED,325 W 15th Street,10011,10011,40.7414,-74.0002
X_325 W 15TH ST THERAPEUTIC LAB_DEACTIVATED,325 W 15th Street,10011,10011,40.7414,-74.0002
X_HOSP SBH BREC MEDICAL_DEACTIVATED,351 West 18 Street,10011,10011,40.7414,-74.0002
325 W 15TH ST ONCOLOGY PHYSICAL THERAPY,325 W 15TH ST,10011-5903,10011,40.7414,-74.0002
325 W 15TH ST SPEECH THERAPY,325 W 15TH STREET,10011-5903,10011,40.7414,-74.0002
X_325 W 15TH ST SPEECH THERAPY_DEACTIVATED,325 W 15TH STREET,10011-5903,10011,40.7414,-74.0002
226 W 14TH ST GASTROENTEROLOGY,226 W 14TH ST,10011-7201,10011,40.7414,-74.0002
226 W 14TH ST RMTI LIVER DISEASE,226 W 14TH ST,10011-7201,10011,40.7414,-74.0002
226W 14TH ST BUSINESS HEALTH,226 w 14th st,10011-7201,10011,40.7414,-74.0002
226W 14TH ST OCCUPATIONAL HEALTH,226 W 14TH STREET,10011-7201,10011,40.7414,-74.0002
52 W 8TH ST GASTROENTEROLOGY,52 W 8TH ST,10011-9092,10011,40.7414,-74.0002
632 BROADWAY ALLERGY,632 BROADWAY,10012-2614,10012,40.7262,-73.9979
632 BROADWAY DERMATOLOGY,632 BROADWAY,10012-2614,10012,40.7262,-73.9979
632 BROADWAY GYNECOLOGY,632 BROADWAY,10012-2614,10012,40.7262,-73.9979
632 BROADWAY ORTHO SPORTS MED,632 BROADWAY,10012-2614,10012,40.7262,-73.9979
632 BROADWAY PRIMARY CARE,632 BROADWAY,10012-2614,10012,40.7262,-73.9979
128 MOTT VASCULAR SURG,128 Mott St,10013,10013,40.7207,-74.0046
168 CENTRE ST LIVER DISEAS,168 Centre Street Floor 3M,10013,10013,40.7207,-74.0046
168 CENTRE ST NEUROSURGERY,168 Centre Street Floor 3M,10013,10013,40.7207,-74.0046
168 CENTRE ST ONCOLOGY,168 Centre Street Floor 3M,10013,10013,40.7207,-74.0046
168 CENTRE ST ORTHOPEDICS,168 Centre Street Floor 3M,10013,10013,40.7207,-74.0046
168 CENTRE ST RHEUM,168 Centre Street Floor 3M,10013,10013,40.7207,-74.0046
168 CENTRE ST RMTI LVR DIS,168 Centre Street Floor 3M,10013,10013,40.7207,-74.0046
168 CENTRE ST SURG COLO,168 Centre Street Floor 3M,10013,10013,40.7207,-74.0046
168 CENTRE ST SURG HEPAT,168 Centre Street Floor 3M,10013,10013,40.7207,-74.0046
168 CENTRE ST THORACICSURG,168 Centre Street Floor 3M,10013,10013,40.7207,-74.0046
168 CENTRE ST TRANS SURG,168 Centre Street Floor 3M,10013,10013,40.7207,-74.0046
10 UNION SQ E MFM,10 Union Square E,10016,10016,40.7456,-73.9784
55 E 34 ST GYN,55 East 34th St,10016,10016,40.7456,-73.9784
55 E 34TH ST CARDIOLOGY,55 East 34th St,10016,10016,40.7456,-73.9784
55 E 34TH ST DERMATOLOGY,55 East 34th Street,10016,10016,40.7456,-73.9784
55 E 34TH ST ENDOCRINOLOGY,55 East 34th Street,10016,10016,40.7456,-73.9784
55 E 34TH ST ENT,55 East 34th St,10016,10016,40.7456,-73.9784
55 E 34TH ST FAMILY MEDICINE,55 East 34th St,10016,10016,40.7456,-73.9784
55 E 34TH ST GASTROENTEROLOGY,55 East 34th St,10016,10016,40.7456,-73.9784
55 E 34TH ST INTERNAL MEDICINE 1ST FL,55 East 34th St,10016,10016,40.7456,-73.9784
55 E 34TH ST INTERNAL MEDICINE JMP,55 East 34th St,10016,10016,40.7456,-73.9784
55 E 34TH ST OPHTHALMOLOGY,55 East 34th St,10016,10016,40.7456,-73.9784
55 E 34TH ST ORTHOPEDICS,55 East 34th St,10016,10016,40.7456,-73.9784
55 E 34TH ST PODIATRY,55 East 34th St,10016,10016,40.7456,-73.9784
55 E 34TH ST PRIMARY CARE 5TH FL,55 East 34th St,10016,10016,40.7456,-73.9784
X_10 UNION SQ E MFM_DEACTIVATED,10 Union Square E,10016,10016,40.7456,-73.9784
X_55 E 34TH ST BHS DEPARTMENT OF CORRECTION_DEACTIVATED,55 E 34th Street,10016,10016,40.7456,-73.9784
X_55 E 34TH ST CARDIOLOGY_DEACTIVATED,55 East 34th St,10016,10016,40.7456,-73.9784
X_55 E 34TH ST DERMATOLOGY_DEACTIVATED,55 East 34th Street,10016,10016,40.7456,-73.9784
X_55 E 34TH ST ENDOCRINOLOGY_DEACTIVATED,55 East 34th St,10016,10016,40.7456,-73.9784
X_55 E 34TH ST ENT_DEACTIVATED,55 East 34th St,10016,10016,40.7456,-73.9784
X_55 E 34TH ST FAMILY MEDICINE_DEACTIVATED,55 East 34th St,10016,10016,40.7456,-73.9784
X_55 E 34TH ST GASTROENTEROLOGY_DEACTIVATED,55 East 34th St,10016,10016,40.7456,-73.9784
X_55 E 34TH ST GYN_DEACTIVATED,55 East 34th St,10016,10016,40.7456,-73.9784
X_55 E 34TH ST INTERNAL MEDICINE 1ST FL_DEACTIVATED,55 East 34th St,10016,10016,40.7456,-73.9784
X_55 E 34TH ST INTERNAL MEDICINE JMP_DEACTIVATED,55 East 34th St,10016,10016,40.7456,-73.9784
X_55 E 34TH ST OPHTHALMOLOGY_DEACTIVATED,55 East 34th St,10016,10016,40.7456,-73.9784
X_55 E 34TH ST ORTHOPEDICS_DEACTIVATED,55 East 34th St,10016,10016,40.7456,-73.9784
X_55 E 34TH ST PODIATRY_DEACTIVATED,55 East 34th St,10016,10016,40.7456,-73.9784
X_55 E 34TH ST PRIMARY CARE 5TH FLOOR_DEACTIVATED,55 East 34th St,10016,10016,40.7456,-73.9784
X_321 E 34TH ORTHO HAND SURGERY_DEACTIVATED,321 East 34th Street,10016,10016,40.7456,-73.9784
X_50 E 34TH OCCUPATIONAL HEALTH_DEACTIVATED,"50 E 34TH ST, ROOM 2B",10016-4319,10016,40.7456,-73.9784
55 E 34TH ST ALLERGY,55 EAST 34TH STREET,10016-4337,10016,40.7456,-73.9784
55 E 34TH ST HEADACHE,55 East 34th Street,10016-4337,10016,40.7456,-73.9784
55 E 34TH ST PULMONOLOGY,55 E 34TH ST,10016-4337,10016,40.7456,-73.9784
55 E 34TH ST REHAB FLUOROSCOPY,55 EAST 34TH STREET,10016-4337,10016,40.7456,-73.9784
55 E 34TH ST RHEUMATOLOGY,55 E 34TH ST,10016-4337,10016,40.7456,-73.9784
X_55 E 34TH ST PAIN MANAGEMENT,"55 East 34th, 3rd Floor",10016-4337,10016,40.7456,-73.9784
X_55 E 34TH ST REHAB FLUOROSCOPY_DEACTIVATED,55 EAST 34TH STREET,10016-4337,10016,40.7456,-73.9784
20 E 46TH ST OB/GYN,20 EAST 46TH STREET,10017,10017,40.7523,-73.9733
X_20 E 46TH ST OB/GYN_DEACTIVATED,20 EAST 46TH STREET,10017,10017,40.7523,-73.9733
84-52 63 AVE INTERNAL MEDICINE,84-52 63rd Avenue,10019,10019,40.7671,-73.9824
99-01 QNS BLVD CARD EP,99-01 Queens Blvd,10019,10019,40.7671,-73.9824
99-01 QNS BLVD GASTRO,99-01 Queens Blvd,10019,10019,40.7671,-73.9824
99-01 QNS BLVD ORTHOPEDICS,99-01 Queens Blvd,10019,10019,40.7671,-73.9824
99-01 QNS BLVD SURG BARI,99-01 Queens Blvd,10019,10019,40.7671,-73.9824
99-01 QNS BLVD SURG GENERAL,99-01 Queens Blvd,10019,10019,40.7671,-73.9824
99-01 QNS BLVD SURG VASCULAR,99-01 Queens Blvd,10019,10019,40.7671,-73.9824
99-01 QNS BLVD UROLOGY-SA 8,99-01 Queens Blvd,10019,10019,40.7671,-73.9824
200 W 57TH PAIN/ANESTHESIOLOGY,200 W 57th Street,10019,10019,40.7671,-73.9824
200 W 57TH PAIN/FLUOROSCOPY,200 W 57th Street,10019,10019,40.7671,-73.9824
200 W 57TH ST ALLERGY,200 WEST 57TH ST,10019,10019,40.7671,-73.9824
200 W 57TH ST DERMATOLOGY,200 WEST 57TH ST,10019,10019,40.7671,-73.9824
200 W 57TH ST ENDOCRINOLOGY,200 WEST 57TH ST,10019,10019,40.7671,-73.9824
200 W 57TH ST GASTROENTEROLOGY,200 WEST 57TH ST,10019,10019,40.7671,-73.9824
200 W 57TH ST INTERNAL MEDICINE,200 WEST 57TH ST,10019,10019,40.7671,-73.9824
200 W 57TH ST OBGYN 13TH FL,200 W 57TH ST,10019,10019,40.7671,-73.9824
200 W 57TH ST OBGYN 16TH FL,200 WEST 57TH ST,10019,10019,40.7671,-73.9824
200 W 57TH ST OPHTHALMOLOGY,200 WEST 57TH ST,10019,10019,40.7671,-73.9824
200 W 57TH ST PODIATRY,200 WEST 57TH ST,10019,10019,40.7671,-73.9824
425 W 59 GASTROENTEROLOGY,"425 W 59th ST,",10019,10019,40.7671,-73.9824
425 W 59TH ORTHO UPPER EXT CV STARR,"425 W 59th St,6TH FL",10019,10019,40.7671,-73.9824
425 W 59TH ST INTERVENTIONAL RADIOLOGY,425 W 59th Street,10019,10019,40.7671,-73.9824
425 W 59TH ST MFEU,425 W 59th St,10019,10019,40.7671,-73.9824
425 W 59TH ST ORTHOPEDICS,425 W 59th St,10019,10019,40.7671,-73.9824
425 W 59TH ST OTOLARYNGOLOGY,425 W 59th St,10019,10019,40.7671,-73.9824
425 W 59TH ST RHEUMATOLOGY,425 W 59th ST,10019,10019,40.7671,-73.9824
425 W 59TH ST RMTI LIVER DISEASE,"425 W 59TH STREET,3RD FLOOR",10019,10019,40.7671,-73.9824
425 W 59TH ST UROLOGY,425 W 59th St,10019,10019,40.7671,-73.9824
445 E 77ST UROLOGY,445 EAST 77TH ST,10019,10019,40.7671,-73.9824
729 7TH AVE GYN,729 7th Avenue,10019,10019,40.7671,-73.9824
729 7TH AVE INTERNAL MEDICINE,729 7th Avenue,10019,10019,40.7671,-73.9824
729 7TH AVE PODIATRY,729 7th Avenue,10019,10019,40.7671,-73.9824
780 8TH AVE DERMATOLOGY,780 8th Ave,10019,10019,40.7671,-73.9824
780 8TH AVE GASTROENTEROLOGY,780 8th Ave,10019,10019,40.7671,-73.9824
780 8TH AVE INTERNAL MEDICINE,780 8th Ave,10019,10019,40.7671,-73.9824
780 8TH AVE OBGYN,780 8th Ave,10019,10019,40.7671,-73.9824
780 8TH AVE ORTHOPEDICS,780 8th Ave,10019,10019,40.7671,-73.9824
1000 10TH AVE CVI CARDIO VEIN,1000 10TH AVENUE,10019,10019,40.7671,-73.9824
1000 10TH AVE CVI CARDIOLOGY,1000 10TH AVENUE,10019,10019,40.7671,-73.9824
1000 10TH AVE CVI CARDIOLOGY ECHO,1000 10TH AVENUE,10019,10019,40.7671,-73.9824
1000 10TH AVE CVI CARDIOLOGY HOLTER,1000 10TH AVENUE,10019,10019,40.7671,-73.9824
1000 10TH AVE CVI CARDIOLOGY NUCLEAR,1000 10TH AVENUE,10019,10019,40.7671,-73.9824
1000 10TH AVE CVI CARDIOLOGY VASCULAR,1000 10TH AVENUE,10019,10019,40.7671,-73.9824
1000 10TH AVE PSYCHIATRY,1000 10TH AVENUE,10019,10019,40.7671,-73.9824
1000 10TH ECHO,1000 10th Ave,10019,10019,40.7671,-73.9824
1000 10TH PFT LAB,1000 10TH AVE,10019,10019,40.7671,-73.9824
1090 AMST AVE 15TH FL CBCS,1090 Amsterdam Ave,10019,10019,40.7671,-73.9824
1090 AMST AVE 17TH FL CHILD CLINIC,1090 Amsterdam Ave,10019,10019,40.7671,-73.9824
1111 AMST AVE MOBILE CRISIS,1111 Amsterdam Ave,10019,10019,40.7671,-73.9824
MSW 1000 10TH AVE CARDIOLOGY CT,1000 10th Avenue,10019,10019,40.7671,-73.9824
MSW OT,1000 10TH AVE,10019,10019,40.7671,-73.9824
MSW PT,1000 10TH AVE,10019,10019,40.7671,-73.9824
MSW RADIATION ONCOLOGY,1000 10TH AVE,10019,10019,40.7671,-73.9824
MSW SLP,1000 10TH AVE,10019,10019,40.7671,-73.9824
WINSTON 3G,1000 Tenth Avenue,10019,10019,40.7671,-73.9824
X_99-01 QNS BLVD CARD EP_DEACTIVATED,99-01 Queens Blvd,10019,10019,40.7671,-73.9824
X_99-01 QNS BLVD CARDIOLOGY_DEACTIVATED,99-01 Queens Blvd,10019,10019,40.7671,-73.9824
X_99-01 QNS BLVD ENDOCRINOLOGY_DEACTIVATED,99-01 Queens Blvd,10019,10019,40.7671,-73.9824
X_99-01 QNS BLVD NEUROLOGY_DEACTIVATED,99-01 Queens Blvd,10019,10019,40.7671,-73.9824
X_99-01 QNS BLVD OBGYN_DEACTIVATED,99-01 Queens Blvd,10019,10019,40.7671,-73.9824
X_99-01 QNS BLVD ORTHOPEDICS_DEACTIVATED,99-01 Queens Blvd,10019,10019,40.7671,-73.9824
X_99-01 QNS BLVD PRIMARY CARE_DEACTIVATED,99-01 Queens Blvd,10019,10019,40.7671,-73.9824
X_99-01 QNS BLVD RHEUMATOLOGY_DEACTIVATED,99-01 Queens Blvd,10019,10019,40.7671,-73.9824
X_99-01 QNS BLVD SURG BARI_DEACTIVATED,99-01 Queens Blvd,10019,10019,40.7671,-73.9824
X_99-01 QNS BLVD SURG GENERAL_DEACTIVATED,99-01 Queens Blvd,10019,10019,40.7671,-73.9824
X_99-01 QNS BLVD SURG VASCULAR_DEACTIVATED,99-01 Queens Blvd,10019,10019,40.7671,-73.9824
X_200 W 57TH PAIN/ANESTHESIOLOGY_DEACTIVATED,200 W 57th Street,10019,10019,40.7671,-73.9824
X_200 W 57TH PAIN/FLUOROSCOPY_DEACTIVATED,200 W 57th Street,10019,10019,40.7671,-73.9824
X_200 W 57TH ST ALLERGY_DEACTIVATED,200 WEST 57TH ST,10019,10019,40.7671,-73.9824
X_200 W 57TH ST DERMATOLOGY_DEACTIVATED,200 WEST 57TH ST,10019,10019,40.7671,-73.9824
X_200 W 57TH ST ENDOCRINOLOGY_DEACTIVATED,200 WEST 57TH ST,10019,10019,40.7671,-73.9824
X_200 W 57TH ST GASTROENTEROLOGY_DEACTIVATED,200 WEST 57TH ST,10019,10019,40.7671,-73.9824
X_200 W 57TH ST INTERNAL MEDICINE_DEACTIVATED,200 WEST 57TH ST,10019,10019,40.7671,-73.9824
X_200 W 57TH ST OBGYN 10TH FL_DEACTIVATED,200 W 57TH ST,10019,10019,40.7671,-73.9824
X_200 W 57TH ST OBGYN 13TH FL_DEACTIVATED,200 W 57TH ST,10019,10019,40.7671,-73.9824
X_200 W 57TH ST OBGYN 16TH FL_DEACTIVATED,200 WEST 57TH ST,10019,10019,40.7671,-73.9824
X_200 W 57TH ST OPHTHALMOLOGY_DEACTIVATED,200 WEST 57TH ST,10019,10019,40.7671,-73.9824
X_200 W 57TH ST PODIATRY_DEACTIVATED,200 WEST 57TH ST,10019,10019,40.7671,-73.9824
X_200 W 57TH ST UROLOGY_DEACTIVATED,200 WEST 57TH ST,10019,10019,40.7671,-73.9824
X_315 W 50TH ST INTERNAL MEDICINE_DEACTIVATED,315 W 50TH ST,10019,10019,40.7671,-73.9824
X_425 W 59 GASTROENTEROLOGY_DEACTIVATED,"425 W 59th ST,",10019,10019,40.7671,-73.9824
X_425 W 59TH ST CARDIAC SURGERY_DEACTIVATED,425 W 59th St,10019,10019,40.7671,-73.9824
X_425 W 59TH ST CARDIOLOGY INT_DEACTIVATED,425 W 59th St,10019,10019,40.7671,-73.9824
X_425 W 59TH ST CARDIOLOGY_DEACTIVATED,425 W 59th St,10019,10019,40.7671,-73.9824
X_425 W 59TH ST MFEU_DEACTIVATED,425 W 59th St,10019,10019,40.7671,-73.9824
X_425 W 59TH ST NEUROSURGERY_DEACTIVATED,425 W 59th St,10019,10019,40.7671,-73.9824
X_425 W 59TH ST ORTHOPEDICS_DEACTIVATED,425 W 59th St,10019,10019,40.7671,-73.9824
X_425 W 59TH ST OTOLARYNGOLOGY_DEACTIVATED,425 W 59th St,10019,10019,40.7671,-73.9824
X_425 W 59TH ST RHEUMATOLOGY_DEACTIVATED,425 W 59th ST,10019,10019,40.7671,-73.9824
X_425 W 59TH ST UROLOGY_DEACTIVATED,425 W 59th St,10019,10019,40.7671,-73.9824
X_425 WEST 59TH ST THERAPEUTIC INFUSION_DEACTIVATED,425 W 59th St,10019,10019,40.7671,-73.9824
X_425 WEST 59TH ST THERAPEUTIC INFUSION_DEACTIVATED,425 W 59TH ST,10019,10019,40.7671,-73.9824
X_729 7TH AVE DERMATOLOGY_DEACTIVATED,729 7th Avenue,10019,10019,40.7671,-73.9824
X_729 7TH AVE GYN_DEACTIVATED,729 7th Avenue,10019,10019,40.7671,-73.9824
X_729 7TH AVE INTERNAL MEDICINE_DEACTIVATED,729 7th Avenue,10019,10019,40.7671,-73.9824
X_729 7TH AVE PODIATRY_DEACTIVATED,729 7th Avenue,10019,10019,40.7671,-73.9824
X_780 8TH AVE DERMATOLOGY_DEACTIVATED,780 8th Ave,10019,10019,40.7671,-73.9824
X_780 8TH AVE GASTROENTEROLOGY_DEACTIVATED,780 8th Ave,10019,10019,40.7671,-73.9824
X_780 8TH AVE INTERNAL MEDICINE_DEACTIVATED,780 8th Ave,10019,10019,40.7671,-73.9824
X_780 8TH AVE OBGYN_DEACTIVATED,780 8th Ave,10019,10019,40.7671,-73.9824
X_780 8TH AVE ORTHOPEDICS_DEACTIVATED,780 8th Ave,10019,10019,40.7671,-73.9824
X_1000 10TH AVE PSYCHIATRY_DEACTIVATED,1000 10TH AVENUE,10019,10019,40.7671,-73.9824
X_1000 10TH ECHO_DEACTIVATED,1000 10th Ave,10019,10019,40.7671,-73.9824
X_1000 10TH PFT LAB_DEACTIVATED,1000 10TH AVE,10019,10019,40.7671,-73.9824
X_1090 AMST AVE 15TH FL CBCS_DEACTIVATED,1090 Amsterdam Ave,10019,10019,40.7671,-73.9824
X_1090 AMST AVE 17TH FL CHILD CLINIC_DEACTIVATED,1090 Amsterdam Ave,10019,10019,40.7671,-73.9824
X_1111 AMST AVE MOBILE CRISIS_DEACTIVATED,1111 Amsterdam Ave,10019,10019,40.7671,-73.9824
1000 10TH AVE EP,1000 10TH AVENUE,10019-1147,10019,40.7671,-73.9824
1000 10TH AVE FAMILY PLANNING CLINIC,1000 10TH AVE,10019-1147,10019,40.7671,-73.9824
1000 10TH AVE GASTROENTEROLOGY CLINIC,1000 10TH AVENUE,10019-1147,10019,40.7671,-73.9824
1000 10TH AVE GYN UROLOGY CLINC,1000 10TH AVENUE,10019-1147,10019,40.7671,-73.9824
1000 10TH AVE HAND CLINIC,1000 10TH AVENUE,10019-1147,10019,40.7671,-73.9824
1000 10TH AVE IAM,"1000 10TH Ave, Suite 2T",10019-1147,10019,40.7671,-73.9824
1000 10TH AVE IAM DENTAL,"1000 10TH Ave, Suite 2T",10019-1147,10019,40.7671,-73.9824
1000 10TH AVE LIVER CLINIC,1000 10TH AVENUE,10019-1147,10019,40.7671,-73.9824
1000 10TH AVE NEURODIAGNOSTICS,1000 TENTH AVENUE FL 4,10019-1147,10019,40.7671,-73.9824
1000 10TH AVE NEUROLOGY,1000 10TH AVENUE,10019-1147,10019,40.7671,-73.9824
1000 10TH AVE NEUROLOGY CLINIC,1000 10TH AVENUE,10019-1147,10019,40.7671,-73.9824
1000 10TH AVE NEUROSURGERY,1000 10TH AVENUE,10019-1147,10019,40.7671,-73.9824
1000 10TH AVE OBGYN CLINIC,1000 10TH AVENUE,10019-1147,10019,40.7671,-73.9824
1000 10TH AVE PEDIATRICS,1000 10TH AVE,10019-1147,10019,40.7671,-73.9824
1000 10TH AVE PODIATRY CLINIC,1000 10TH AVENUE,10019-1147,10019,40.7671,-73.9824
1000 10TH AVE REPRODUCTIVE ENDOCRINOLOGY AND INFERTILITY CLINIC,1000 10th Ave,10019-1147,10019,40.7671,-73.9824
1000 10TH AVE RHEUMATOLOGY CLINIC,1000 10TH AVENUE,10019-1147,10019,40.7671,-73.9824
1000 10TH AVE SLEEP CENTER,1000 10TH AVE,10019-1147,10019,40.7671,-73.9824
1000 10TH AVE SMOKING CESSATION CLINIC,1000 10TH AVENUE,10019-1147,10019,40.7671,-73.9824
1000 10TH AVE SPINE CLINIC,1000 10TH AVENUE,10019-1147,10019,40.7671,-73.9824
1000 10TH AVE WINSTON 9C ADDICTIONS EVALUATION,1000 10TH AVE,10019-1147,10019,40.7671,-73.9824
1000 10TH AVE WINSTON 9C ADDICTIONS OUTPATIENT,1000 10TH AVE,10019-1147,10019,40.7671,-73.9824
1000 10TH CITPD,1000 10TH AVENUE,10019-1147,10019,40.7671,-73.9824
1000 10TH FETAL EVAL CLINIC,1000 10TH AVENUE,10019-1147,10019,40.7671,-73.9824
1000 10TH GYN BOOKING,1000 10TH AVENUE,10019-1147,10019,40.7671,-73.9824
1000 10TH HEADACHE CLINIC,1000 10TH AVENUE,10019-1147,10019,40.7671,-73.9824
1000 10TH OBGYN HIGH RISK CLINIC,1000 10TH AVENUE,10019-1147,10019,40.7671,-73.9824
1000 10TH ORTHOPEDIC CLINIC,1000 10TH AVENUE,10019-1147,10019,40.7671,-73.9824
1000 10TH PAIN MGMNT,1000 10TH AVENUE,10019-1147,10019,40.7671,-73.9824
1000 10TH PULMONARY CLINIC,1000 10TH AVENUE,10019-1147,10019,40.7671,-73.9824
1000 10TH SLEEP DISORDER CLINIC,1000 10TH AVENUE,10019-1147,10019,40.7671,-73.9824
1000 10TH  SURG PLASTIC CLINIC,1000 10TH AVENUE,10019-1147,10019,40.7671,-73.9824
1000 10TH UROLOGY CLINIC,1000 10TH AVENUE,10019-1147,10019,40.7671,-73.9824
MAIN 12A (L&D),1000 Tenth Avenue,10019-1147,10019,40.7671,-73.9824
MSW DIAGNOSTIC RADIOLOGY,"1000 10TH AVENUE, 4th Floor",10019-1147,10019,40.7671,-73.9824
MSW FETAL EVAL CLINIC,1000 10th Avenue,10019-1147,10019,40.7671,-73.9824
MSW OB PAT,1000 10TH AVENUE,10019-1147,10019,40.7671,-73.9824
X_1000 10TH AVE CARDIOLOGY CLINIC_DEACTIVATED,1000 10TH AVENUE,10019-1147,10019,40.7671,-73.9824
X_1000 10TH AVE EP_DEACTIVATED,1000 10TH AVENUE,10019-1147,10019,40.7671,-73.9824
X_1000 10TH AVE FAMILY PLANNING CLINIC_DEACTIVATED,1000 10TH AVE,10019-1147,10019,40.7671,-73.9824
X_1000 10TH AVE FETAL EVAL CLINIC_DEACTIVATED,1000 10TH AVENUE,10019-1147,10019,40.7671,-73.9824
X_1000 10TH AVE GASTROENTEROLOGY CLINIC_DEACTIVATED,1000 10TH AVENUE,10019-1147,10019,40.7671,-73.9824
X_1000 10TH AVE GYN ONC_DEACTIVATED,1000 10th Ave,10019-1147,10019,40.7671,-73.9824
X_1000 10TH AVE GYN UROLOGY CLINIC_DEACTIVATED,1000 10TH AVENUE,10019-1147,10019,40.7671,-73.9824
X_1000 10TH AVE HAND CLINIC_DEACTIVATED,1000 10TH AVENUE,10019-1147,10019,40.7671,-73.9824
X_1000 10TH AVE HEADACHE CLINIC_DEACTIVATED,1000 10TH AVENUE,10019-1147,10019,40.7671,-73.9824
X_1000 10TH AVE HEM ONC_DEACTIVATED,1000 10TH AVENUE,10019-1147,10019,40.7671,-73.9824
X_1000 10TH AVE IAM_DEACTIVATED,"1000 10TH Ave, Suite 2T",10019-1147,10019,40.7671,-73.9824
X_1000 10TH AVE LIVER CLINIC_DEACTIVATED,1000 10TH AVENUE,10019-1147,10019,40.7671,-73.9824
X_1000 10TH AVE NEURODIAGNOSTICS_DEACTIVATED,1000 TENTH AVENUE FL 4,10019-1147,10019,40.7671,-73.9824
X_1000 10TH AVE NEUROLOGY CLINIC_DEACTIVATED,1000 10TH AVENUE,10019-1147,10019,40.7671,-73.9824
X_1000 10TH AVE NEUROLOGY_DEACTIVATED,1000 10TH AVENUE,10019-1147,10019,40.7671,-73.9824
X_1000 10TH AVE NEUROSURGERY_DEACTIVATED,1000 10TH AVENUE,10019-1147,10019,40.7671,-73.9824
X_1000 10TH AVE OBGYN CLINIC_DEACTIVATED,1000 10TH AVENUE,10019-1147,10019,40.7671,-73.9824
X_1000 10TH AVE OBGYN HIGH RISK CLINIC_DEACTIVATED,1000 10TH AVENUE,10019-1147,10019,40.7671,-73.9824
X_1000 10TH AVE ORTHOPEDIC CLINIC_DEACTIVATED,1000 10TH AVENUE,10019-1147,10019,40.7671,-73.9824
X_1000 10TH AVE PAIN MGMNT CLINIC_DEACTIVATED,1000 10TH AVENUE,10019-1147,10019,40.7671,-73.9824
X_1000 10TH AVE PEDIATRICS_DEACTIVATED,1000 10TH AVE,10019-1147,10019,40.7671,-73.9824
X_1000 10TH AVE PODIATRY CLINIC_DEACTIVATED,1000 10TH AVENUE,10019-1147,10019,40.7671,-73.9824
X_1000 10TH AVE PULMONARY CLINIC_DEACTIVATED,1000 10TH AVENUE,10019-1147,10019,40.7671,-73.9824
X_1000 10TH AVE REPRODUCTIVE ENDOCRINOLOGY AND INFERTILITY CLINIC_DEACTIVATED,1000 10th Ave,10019-1147,10019,40.7671,-73.9824
X_1000 10TH AVE RHEUMATOLOGY CLINIC_DEACTIVATED,1000 10TH AVENUE,10019-1147,10019,40.7671,-73.9824
X_1000 10TH AVE SLEEP CENTER_DEACTIVATED,1000 10TH AVE,10019-1147,10019,40.7671,-73.9824
X_1000 10TH AVE SLEEP DISORDER CLINIC_DEACTIVATED,1000 10TH AVENUE,10019-1147,10019,40.7671,-73.9824
X_1000 10TH AVE SMOKING CESSATION CLINIC_DEACTIVATED,1000 10TH AVENUE,10019-1147,10019,40.7671,-73.9824
X_1000 10TH AVE SPINE CLINIC_DEACTIVATED,1000 10TH AVENUE,10019-1147,10019,40.7671,-73.9824
X_1000 10TH AVE SURG PLASTIC CLINIC_DEACTIVATED,1000 10TH AVENUE,10019-1147,10019,40.7671,-73.9824
X_1000 10TH AVE SURG VASCULAR CLINIC_DEACTIVATED,1000 10th Ave,10019-1147,10019,40.7671,-73.9824
X_1000 10TH AVE SURGERY CLINIC_DEACTIVATED,1000 10TH AVENUE,10019-1147,10019,40.7671,-73.9824
X_1000 10TH AVE UROLOGY CLINIC_DEACTIVATED,1000 10TH AVENUE,10019-1147,10019,40.7671,-73.9824
X_1000 10TH CITPD_DEACTIVATED,1000 10TH AVENUE,10019-1147,10019,40.7671,-73.9824
X_1000 10TH SURG VASCULAR CLINIC_DEACTIVATED,1000 10th Ave,10019-1147,10019,40.7671,-73.9824
X_1000 10TH SURG VASCULAR_DEACTIVATED,"1000 10TH AV, STE 5G-77",10019-1147,10019,40.7671,-73.9824
200 W 57TH ST CARDIOLOGY,200 W 57TH ST,10019-3211,10019,40.7671,-73.9824
619 W 54TH ST OPHTHALMOLOGY,619 W 54th St,10019-3545,10019,40.7671,-73.9824
787 11TH AVE MSW SPINE CENTER,787 11TH AVENUE,10019-3584,10019,40.7671,-73.9824
787 11TH AVE SURG BREAST,787 11th Avenue,10019-3584,10019,40.7671,-73.9824
425 W 59 SLW SURG PLASTIC,425 WEST 59th STREET,10019-8022,10019,40.7671,-73.9824
425 W 59 ST OCCUPATIONAL THERAPY,425 W 59TH STREET,10019-8022,10019,40.7671,-73.9824
425 W 59 SURG COLORECTAL,425 WEST 59th STREET,10019-8022,10019,40.7671,-73.9824
425 W 59 SURG GENERAL,425 WEST 59th STREET,10019-8022,10019,40.7671,-73.9824
425 W 59 SURG ONCOLOGY,425 WEST 59th STREET,10019-8022,10019,40.7671,-73.9824
425 W 59 SURG VASCULAR,425 WEST 59th STREET,10019-8022,10019,40.7671,-73.9824
425 W 59TH ST GYN ONCOLOGY,425 W 59TH ST,10019-8022,10019,40.7671,-73.9824
425 W 59TH ST HEM ONC,425 WEST 59th STREET,10019-8022,10019,40.7671,-73.9824
425 W 59TH ST PALLIATIVE CARE,425 W 59TH ST,10019-8022,10019,40.7671,-73.9824
425 W 59TH ST PANCREAS MULTIDISCIPLINARY ONCOLOGY,425 WEST 59TH STREET,10019-8022,10019,40.7671,-73.9824
425 WEST 59TH ST HEM ONC INFUSION,425 WEST 59TH STREET,10019-8022,10019,40.7671,-73.9824
425 WEST 59TH ST INFUSION,425 WEST 59TH STREET,10019-8022,10019,40.7671,-73.9824
X_425 W 59 6FL SURG BREAST_DEACTIVATED,425 WEST 59th STREET,10019-8022,10019,40.7671,-73.9824
X_425 W 59 SURG BREAST_DEACTIVATED,425 WEST 59th STREET,10019-8022,10019,40.7671,-73.9824
X_425 W 59 SURG COLORECTAL_DEACTIVATED,425 WEST 59th STREET,10019-8022,10019,40.7671,-73.9824
X_425 W 59 SURG GENERAL_DEACTIVATED,425 WEST 59th STREET,10019-8022,10019,40.7671,-73.9824
X_425 W 59 SURG ONCOLOGY_DEACTIVATED,425 WEST 59th STREET,10019-8022,10019,40.7671,-73.9824
X_425 W 59 SURG VASCULAR_DEACTIVATED,425 WEST 59th STREET,10019-8022,10019,40.7671,-73.9824
X_425 WEST 59 ST SLW SURG PLASTIC_DEACTIVATED,425 WEST 59th STREET,10019-8022,10019,40.7671,-73.9824
X_425 WEST 59TH ST HEM ONC INFUSION_DEACTIVATED,425 WEST 59th STREET,10019-8022,10019,40.7671,-73.9824
X_425 WEST 59TH ST HEM/ONC_DEACTIVATED,425 WEST 59TH STREET,10019-8022,10019,40.7671,-73.9824
X_425 WEST 59TH ST HEM/ONC_DEACTIVATED,425 WEST 59th STREET,10019-8022,10019,40.7671,-73.9824
X_47 E 88TH ST OB/GYN ASSOC_DEACTIVATED,157 E 72nd St,10021,10021,40.7699,-73.9585
157 E 72ND ST OB/GYN,157 E 72ND STREET,10021-4331,10021,40.7699,-73.9585
625 MADISON AVE UROLOGY,625 Madison Avenue,10022,10022,40.7585,-73.9678
625 MADISON AVE UROLOGY MOBILE UNIT,625 madison avenue,10022-1801,10022,40.7585,-73.9678
231 E 55TH OCCUPATIONAL HEALTH,231 E 55TH ST,10022-4001,10022,40.7585,-73.9678
X_231 E 55TH OCCUPATIONAL HEALTH_DEACTIVATED,231 E 55TH ST,10022-4001,10022,40.7585,-73.9678
36 W 60 ST ENDOCRINOLOGY,36 W 60th ST,10023,10023,40.7757,-73.9826
36 W 60 ST INFECTIOUS DISEASE,36 W 60th ST,10023,10023,40.7757,-73.9826
36 W 60 ST NEPHROLOGY,36 W 60th ST,10023,10023,40.7757,-73.9826
36 W 60 ST PULMONOLOGY,36 W 60th ST,10023,10023,40.7757,-73.9826
122 AMSTERDAM SCH,122 Amsterdam Avenue,10023,10023,40.7757,-73.9826
124 W 60TH ST MFM,124 W 60TH STREET,10023,10023,40.7757,-73.9826
2109 BROADWAY POST COVID,"2109 BROADWAY,2FL",10023,10023,40.7757,-73.9826
HOSP SBH MCSM MEDICAL,280 Pleasant Avenue,10023,10023,40.7757,-73.9826
X_10 UNION SQ E URGENT CARE_DEACTIVATED,10 Union Square,10023,10023,40.7757,-73.9826
X_36 W 60 ST ENDOCRINOLOGY_DEACTIVATED,36 W 60th ST,10023,10023,40.7757,-73.9826
X_36 W 60 ST INFECTIOUS DISEASE_DEACTIVATED,36 W 60th ST,10023,10023,40.7757,-73.9826
X_36 W 60 ST NEPHROLOGY_DEACTIVATED,36 W 60th ST,10023,10023,40.7757,-73.9826
X_36 W 60 ST PULMONOLOGY_DEACTIVATED,36 W 60th ST,10023,10023,40.7757,-73.9826
X_124 W 60TH ST MFM_DEACTIVATED,124 W 60TH STREET,10023,10023,40.7757,-73.9826
X_2109 BROADWAY ENDOCRINOLOGY_DEACTIVATED,2109 Broadway,10023,10023,40.7757,-73.9826
230 W 74TH ST ENDOSCOPY,230 W 74TH ST,10023-2107,10023,40.7757,-73.9826
2109 BROADWAY IM,2109 Broadway,10023-2138,10023,40.7757,-73.9826
2109 BROADWAY INFECTIOUS DISEASE,2109 Broadway,10023-2138,10023,40.7757,-73.9826
X_2109 BROADWAY DERM_DEACTIVATED,2109 Broadway,10023-2138,10023,40.7757,-73.9826
X_2109 BROADWAY IM_DEACTIVATED,2109 Broadway,10023-2138,10023,40.7757,-73.9826
X_2109 BROADWAY INFECTIOUS DISEASE_DEACTIVATED,2109 Broadway,10023-2138,10023,40.7757,-73.9826
50 W 77TH ST OBGYN,50 W 77th Street,10024,10024,40.7855,-73.9709
145 W 84 SCH,145 W 84 St,10024,10024,40.7855,-73.9709
234 CENTRAL PARK WEST INTERNAL MEDICINE,234 Central Park West,10024,10024,40.7855,-73.9709
638 COLUMBUS AVE INTERNAL MEDICINE,"638 Columbus Ave,",10024,10024,40.7855,-73.9709
638 COLUMBUS AVE URGENT CARE,638 Columbus Ave,10024,10024,40.7855,-73.9709
X_2 W 86TH ST OBGYN_DEACTIVATED,i W 86TH ST,10024,10024,40.7855,-73.9709
X_50 W 77TH ST OBGYN_DEACTIVATED,50 W 77th Street,10024,10024,40.7855,-73.9709
X_234 CENTRAL PARK WEST INTERNAL MEDICINE_DEACTIVATED,234 Central Park West,10024,10024,40.7855,-73.9709
X_638 COLUMBUS AVE PRIMARY CARE_DEACTIVATED,"638 Columbus Ave,",10024,10024,40.7855,-73.9709
620 COLUMBUS AVE DERM,620 COLUMBUS AVE,10024-1459,10024,40.7855,-73.9709
440 W 114 IAM,"440 WEST 114TH St, Suite 640",10025,10025,40.7988,-73.9683
440 W 114 INFUSION,440 WEST 114TH STREET,10025,10025,40.7988,-73.9683
440 W 114 ST ACC6 SURGICAL ONCOLOGY,440 W 114th St,10025,10025,40.7988,-73.9683
440 W 114 SURG BARIATRIC,440 W 114TH STREET,10025,10025,40.7988,-73.9683
440 W 114 SURG COLORECTAL,440 W 114TH STREET,10025,10025,40.7988,-73.9683
440 W 114 SURG GENERAL,440 W 114TH STREET,10025,10025,40.7988,-73.9683
440 W 114 SURG PLASTIC,440 W 114TH STREET,10025,10025,40.7988,-73.9683
440 W 114 SURG VASC,440 West 114th Street,10025,10025,40.7988,-73.9683
440 W 114 THORACIC SURG,440 West 114th St. 6th Floor,10025,10025,40.7988,-73.9683
440 W 114TH IAM DENTAL,"440 WEST 114TH St, Suite 640",10025,10025,40.7988,-73.9683
440 W 114TH ST ACC6 GASTROENTEROLOGY,"440 WEST 114TH ST,",10025,10025,40.7988,-73.9683
1090 AMST AVE NEUROLOGY,"1090 Amsterdam Ave,",10025,10025,40.7988,-73.9683
1090 AMST AVE NEUROSURGERY,"1090 Amsterdam Ave,",10025,10025,40.7988,-73.9683
1090 AMST AVE PSYCHIATRY,1090 Amsterdam Ave,10025,10025,40.7988,-73.9683
1090 AMST AVE REHAB MEDICINE,1090 Amsterdam Ave,10025,10025,40.7988,-73.9683
1090 AMST AVE UROLOGY,"1090 Amsterdam Avenue, Suite 7G",10025,10025,40.7988,-73.9683
1090 AMST CARDIOLOGY,"1090 Amsterdam Ave, Suite 8B",10025,10025,40.7988,-73.9683
1111 AMST ECHO,1111 Amsterdam Avenue,10025,10025,40.7988,-73.9683
1111 AMST PFT LAB,1111 AMSTERDAM AVE,10025,10025,40.7988,-73.9683
MS SLR PRI SURG 1111 AMSTERDAM AVE SEC D,440 W 114TH STREET,10025,10025,40.7988,-73.9683
MSM INTERVENTIONAL RADIOLOGY,1111 Amsterdam Avenue,10025,10025,40.7988,-73.9683
X_440 W 114 GERIATRIC CLINIC_DEACTIVATED,440 W 114TH STREET,10025,10025,40.7988,-73.9683
X_440 W 114 HEM ONC_DEACTIVATED,440 WEST 114TH STREET,10025,10025,40.7988,-73.9683
X_440 W 114 INFUSION CENTER_DEACTIVATED,440 WEST 114TH STREET,10025,10025,40.7988,-73.9683
X_440 W 114 NUTRITION CLINIC,440 W 114TH STREET,10025,10025,40.7988,-73.9683
X_440 W 114 ST ACC6 SURGICAL ONCOLOGY_DEACTIVATED,440 W 114th St,10025,10025,40.7988,-73.9683
X_440 W 114 SURG BARIATRIC_DEACTIVATED,440 W 114TH STREET,10025,10025,40.7988,-73.9683
X_440 W 114 SURG COLORECTAL_DEACTIVATED,440 W 114TH STREET,10025,10025,40.7988,-73.9683
X_440 W 114 SURG GENERAL_DEACTIVATED,440 W 114TH STREET,10025,10025,40.7988,-73.9683
X_440 W 114 SURG VASC_DEACTIVATED,440 West 114th Street,10025,10025,40.7988,-73.9683
X_440 W 114 THERAPEUTIC INFUSION_DEACTIVATED,440 WEST 114TH STREET,10025,10025,40.7988,-73.9683
X_440 W 114 THORACIC SURG_DEACTIVATED,440 West 114th St. 6th Floor,10025,10025,40.7988,-73.9683
X_440 W 114TH IAM DENTAL_DEACTIVATED,"440 WEST 114TH St, Suite 640",10025,10025,40.7988,-73.9683
X_440 W 114TH IAM_DEACTIVATED,"440 WEST 114TH St, Suite 640",10025,10025,40.7988,-73.9683
X_440 W 114TH ST ACC6 GASTROENTEROLOGY_DEACTIVATED,"440 WEST 114TH ST,",10025,10025,40.7988,-73.9683
X_1090 AMST AVE GASTROENTEROLOGY_DEACTIVATED,"1090 Amsterdam Ave,",10025,10025,40.7988,-73.9683
X_1090 AMST AVE NEPHROLOGY_DEACTIVATED,"1090 Amsterdam Ave,",10025,10025,40.7988,-73.9683
X_1090 AMST AVE NEUROLOGY_DEACTIVATED,"1090 Amsterdam Ave,",10025,10025,40.7988,-73.9683
X_1090 AMST AVE NEUROSURGERY_DEACTIVATED,"1090 Amsterdam Ave,",10025,10025,40.7988,-73.9683
X_1090 AMST AVE PSYCHIATRY_DEACTIVATED,1090 Amsterdam Ave,10025,10025,40.7988,-73.9683
X_1090 AMST AVE PULMONOLOGY_DEACTIVATED,"1090 Amsterdam Ave,",10025,10025,40.7988,-73.9683
X_1090 AMST AVE REHAB MEDICINE_DEACTIVATED,1090 Amsterdam Ave,10025,10025,40.7988,-73.9683
X_1090 AMST AVE UROLOGY_DEACTIVATED,"1090 Amsterdam Avenue, Suite 7G",10025,10025,40.7988,-73.9683
X_1090 AMST SURG VASCULAR_DEACTIVATED,"1090 AMST AV, 12th FLR",10025,10025,40.7988,-73.9683
X_1111 AMST AVE ENDOCRINOLOGY_DEACTIVATED,"1111 Amsterdam Ave,",10025,10025,40.7988,-73.9683
X_1111 AMST ECHO_DEACTIVATED,1111 Amsterdam Avenue,10025,10025,40.7988,-73.9683
X_1111 AMST PFT LAB_DEACTIVATED,1111 AMSTERDAM AVE,10025,10025,40.7988,-73.9683
X_MS SLR PRI SURG 1111 AMSTERDAM AVE SEC D_DEACTIVATED,"1111 Amsterdam Avenue, Section D",10025,10025,40.7988,-73.9683
411 WEST 114TH SREET 1ST ADULT CLINIC CAC,411 West 114th Street,10025-1710,10025,40.7988,-73.9683
411 WEST 114TH ST 2ND FL CARES / AADP,411 West 114th Street,10025-1710,10025,40.7988,-73.9683
411 WEST 114TH ST 2ND FL CARES / CAPA MH,411 West 114th Street,10025-1710,10025,40.7988,-73.9683
411 WEST 114TH ST 2ND FL CARES / CAPA SA,411 West 114th Street,10025-1710,10025,40.7988,-73.9683
411 WEST 114TH ST CARES UPRISE,411 W 114th Street,10025-1710,10025,40.7988,-73.9683
411 WEST 114TH STREET 3RD-ADULT CLINIC OPC,411 West 114th Street,10025-1710,10025,40.7988,-73.9683
411 WEST 114TH STREET CHILD CLINIC,411 West 114th Street,10025-1710,10025,40.7988,-73.9683
X_411 WEST 114TH SREET 1ST ADULT CLINIC CAC_DEACTIVATED,411 West 114th Street,10025-1710,10025,40.7988,-73.9683
X_411 WEST 114TH ST 2ND FL CARES / AADP_DEACTIVATED,411 West 114th Street,10025-1710,10025,40.7988,-73.9683
X_411 WEST 114TH ST 2ND FL CARES / CAPA MH_DEACTIVATED,411 West 114th Street,10025-1710,10025,40.7988,-73.9683
X_411 WEST 114TH ST 2ND FL CARES / CAPA SA_DEACTIVATED,411 West 114th Street,10025-1710,10025,40.7988,-73.9683
X_411 WEST 114TH STREET 3RD-ADULT CLINIC OPC_DEACTIVATED,411 West 114th Street,10025-1710,10025,40.7988,-73.9683
X_411 WEST 114TH STREET CHILD CLINIC_DEACTIVATED,411 West 114th Street,10025-1710,10025,40.7988,-73.9683
1111 AMST AVE GERI HOME CERTS,1111 AMSTERDAM AVE,10025-1716,10025,40.7988,-73.9683
1111 AMST AVE GERIATRICS,"1111 AMSTERDAM AVE,10TH FLOOR",10025-1716,10025,40.7988,-73.9683
1111 AMST GERI CCM BILLING,1111 AMSTERDAM AVE,10025-1716,10025,40.7988,-73.9683
CLARK CARDIAC CATH LAB,1111 Amsterdam Ave,10025-1716,10025,40.7988,-73.9683
CLARK EP LAB,1111 Amsterdam Ave,10025-1716,10025,40.7988,-73.9683
MSM DIAGNOSTIC RADIOLOGY,"440 W 114th Street, 3 rd Floor",10025-1716,10025,40.7988,-73.9683
MSM INTERVENTIONAL RADIOLOGY,1111 Amsterdam Ave,10025-1716,10025,40.7988,-73.9683
STUYVESANT 6,1111 Amsterdam Ave,10025-1716,10025,40.7988,-73.9683
X_1111 AMST AVE GERIATRICS_DEACTIVATED,"1111 AMSTERDAM AVE,10TH FLOOR",10025-1716,10025,40.7988,-73.9683
X_CLARK CARDIAC CATH LAB_DEACTIVATED,1111 Amsterdam Ave,10025-1716,10025,40.7988,-73.9683
X_CLARK EP LAB_DEACTIVATED,1111 Amsterdam Ave,10025-1716,10025,40.7988,-73.9683
X_CLARK INTERVENTIONAL RADIOLOGY_DEACTIVATED,1111 Amsterdam Ave,10025-1716,10025,40.7988,-73.9683
1090 AMST SURG BREAST,1090 AMSTERDAM AV 10A,10025-1737,10025,40.7988,-73.9683
X_1090 AMST SURG BREAST_DEACTIVATED,1090 AMSTERDAM AV 10A,10025-1737,10025,40.7988,-73.9683
440 W 114 BACK AND NECK CLINIC,440 WEST 114TH STREET,10025-1796,10025,40.7988,-73.9683
440 W 114 CARD SURG,440 W 114TH STREET,10025-1796,10025,40.7988,-73.9683
440 W 114 CARDIO,440 W 114TH STREET,10025-1796,10025,40.7988,-73.9683
440 W 114 CARDIO DIAGNOSTICS,440 W 114TH STREET,10025-1796,10025,40.7988,-73.9683
440 W 114 CARDIO HOLTER,440 W 114TH STREET,10025-1796,10025,40.7988,-73.9683
440 W 114 CARDIO REMOTE DEVICE,440 WEST 114TH STREET,10025-1796,10025,40.7988,-73.9683
440 W 114 DERMATOLOGY CLINIC,440 WEST 114TH STREET,10025-1796,10025,40.7988,-73.9683
440 W 114 ECHO DIAGNOSTIC,440 W 114TH STREET,10025-1796,10025,40.7988,-73.9683
440 W 114 ENDOCRINE CLINIC,440 WEST 114TH STREET,10025-1796,10025,40.7988,-73.9683
440 W 114 GI CLINIC,440 WEST 114TH STREET,10025-1796,10025,40.7988,-73.9683
440 W 114 HANDCLINIC,440 WEST 114TH STREET,10025-1796,10025,40.7988,-73.9683
440 W 114 HEM ONC,440 WEST 114TH STREET,10025-1796,10025,40.7988,-73.9683
440 W 114 INFECTIOUS DISEASE CLINIC,440 WEST 114TH STREET,10025-1796,10025,40.7988,-73.9683
440 W 114 INFUSION CENTER,440 WEST 114TH STREET,10025-1796,10025,40.7988,-73.9683
440 W 114 JOINTS CLINIC,440 WEST 114TH STREET,10025-1796,10025,40.7988,-73.9683
440 W 114 LAB CLINIC,440 WEST 114TH STREET,10025-1796,10025,40.7988,-73.9683
440 W 114 LIVER CLINIC,440 W 114TH Street,10025-1796,10025,40.7988,-73.9683
440 W 114 NEPHROLOGY/RENAL CLINIC,440 WEST 114TH STREET,10025-1796,10025,40.7988,-73.9683
440 W 114 NEUROLOGY CLINIC,440 WEST 114TH STREET,10025-1796,10025,40.7988,-73.9683
440 W 114 NEUROSURGERY CLINIC,440 WEST 114TH STREET,10025-1796,10025,40.7988,-73.9683
440 W 114 NYLAG CLINIC,440 WEST 114TH STREET,10025-1796,10025,40.7988,-73.9683
440 W 114 OPHTHALMOLOGY CLINIC,440 WEST 114TH STREET,10025-1796,10025,40.7988,-73.9683
440 W 114 ORTHO CLINIC,440 WEST 114TH STREET,10025-1796,10025,40.7988,-73.9683
440 W 114 PAIN MNGMT CLINIC,440 WEST 114TH STREET,10025-1796,10025,40.7988,-73.9683
440 W 114 PODIATRY CLINIC,440 WEST 114TH STREET,10025-1796,10025,40.7988,-73.9683
440 W 114 PULMONARY CLINIC,440 WEST 114TH STREET,10025-1796,10025,40.7988,-73.9683
440 W 114 RHEUMATOLOGY CLINIC,440 W 114TH STREET,10025-1796,10025,40.7988,-73.9683
440 W 114 SICKLE CELL CLINIC,440 WEST 114TH STREET,10025-1796,10025,40.7988,-73.9683
440 W 114 SMOKING CESSATION CLINIC,440 WEST 114TH STREET,10025-1796,10025,40.7988,-73.9683
440 W 114 SPINE CLINIC,440 WEST 114TH STREET,10025-1796,10025,40.7988,-73.9683
440 W 114 ST ACC1 SUITE 100 SURGICAL ONCOLOGY,440 W 114TH ST,10025-1796,10025,40.7988,-73.9683
440 W 114 SURG PLASTIC CLINIC,440 WEST 114TH STREET,10025-1796,10025,40.7988,-73.9683
440 W 114 SURG VASC CVI,440 W 114TH STREET,10025-1796,10025,40.7988,-73.9683
440 W 114 THERAPEUTIC INFUSION,440 WEST 114TH STREET,10025-1796,10025,40.7988,-73.9683
440 W 114 UROLOGY CLINIC,440 WEST 114TH STREET,10025-1796,10025,40.7988,-73.9683
440 W 114 VASC SURG DIAG,440 W 114TH STREET,10025-1796,10025,40.7988,-73.9683
440 W 114TH ST ACC6 ALLERGY,440 WEST 114TH STREET,10025-1796,10025,40.7988,-73.9683
440 W 114TH ST ACC6 ENDOCRINOLOGY,"440 WEST 114TH ST, 6TH FLOOR",10025-1796,10025,40.7988,-73.9683
440 W 114TH ST ACC6 INFECTIOUS DISEASE,"440 WEST 114TH ST, ACC 6",10025-1796,10025,40.7988,-73.9683
440 W 114TH ST ACC6 NEPHROLOGY,440 W 114TH ST,10025-1796,10025,40.7988,-73.9683
440 W 114TH ST ACC6 PULMONARY,"440 WEST 114TH ST, 6TH FLOOR",10025-1796,10025,40.7988,-73.9683
440 W 114TH ST ACC6 RHEUMATOLOGY,"440 WEST 114TH ST, 6TH FLOOR",10025-1796,10025,40.7988,-73.9683
440 W 114TH ST ACC6 THORACIC SURGERY,440 W 114TH ST,10025-1796,10025,40.7988,-73.9683
440 W 114TH ST RMTI LIVER DISEASE,440 W 114TH STREET,10025-1796,10025,40.7988,-73.9683
MSM NEUROLOGY DIAGNOSTICS,1111 Amsterdam Avenue,10025-1796,10025,40.7988,-73.9683
X_440 W 114 ARTHRITIS CLINIC_DEACTIVATED,440 W 114TH STREET,10025-1796,10025,40.7988,-73.9683
X_440 W 114 CARD SURG_DEACTIVATED,440 W 114TH STREET,10025-1796,10025,40.7988,-73.9683
X_440 W 114 CARDIO HOLTER_DEACTIVATED,440 W 114TH STREET,10025-1796,10025,40.7988,-73.9683
X_440 W 114 CARDIO REMOTE DEVICE_DEACTIVATED,440 WEST 114TH STREET,10025-1796,10025,40.7988,-73.9683
X_440 W 114 CARDIO_DEACTIVATED,440 W 114TH STREET,10025-1796,10025,40.7988,-73.9683
X_440 W 114 DERMATOLOGY CLINIC_DEACTIVATED,440 WEST 114TH STREET,10025-1796,10025,40.7988,-73.9683
X_440 W 114 ECHO DIAGNOSTIC_DEACTIVATED,440 W 114TH STREET,10025-1796,10025,40.7988,-73.9683
X_440 W 114 ENDOCRINE CLINIC_DEACTIVATED,440 WEST 114TH STREET,10025-1796,10025,40.7988,-73.9683
X_440 W 114 GI CLINIC_DEACTIVATED,440 WEST 114TH STREET,10025-1796,10025,40.7988,-73.9683
X_440 W 114 HAND CLINIC_DEACTIVATED,440 WEST 114TH STREET,10025-1796,10025,40.7988,-73.9683
X_440 W 114 INFECTIOUS DISEASE CLINIC_DEACTIVATED,440 WEST 114TH STREET,10025-1796,10025,40.7988,-73.9683
X_440 W 114 JOINTS CLINIC_DEACTIVATED,440 WEST 114TH STREET,10025-1796,10025,40.7988,-73.9683
X_440 W 114 LAB CLINIC_DEACTIVATED,440 WEST 114TH STREET,10025-1796,10025,40.7988,-73.9683
X_440 W 114 LIVER CLINIC_DEACTIVATED,440 W 114TH Street,10025-1796,10025,40.7988,-73.9683
X_440 W 114 NEPHROLOGY/RENAL CLINIC_DEACTIVATED,440 WEST 114TH STREET,10025-1796,10025,40.7988,-73.9683
X_440 W 114 NEUROLOGY CLINIC_DEACTIVATED,440 WEST 114TH STREET,10025-1796,10025,40.7988,-73.9683
X_440 W 114 NEUROSURGERY CLINIC_DEACTIVATED,440 WEST 114TH STREET,10025-1796,10025,40.7988,-73.9683
X_440 W 114 NYLAG CLINIC_DEACTIVATED,440 WEST 114TH STREET,10025-1796,10025,40.7988,-73.9683
X_440 W 114 OPHTHALMOLOGY CLINIC_DEACTIVATED,440 WEST 114TH STREET,10025-1796,10025,40.7988,-73.9683
X_440 W 114 ORTHO CLINIC_DEACTIVATED,440 WEST 114TH STREET,10025-1796,10025,40.7988,-73.9683
X_440 W 114 PAIN MNGMT CLINIC_DEACTIVATED,440 WEST 114TH STREET,10025-1796,10025,40.7988,-73.9683
X_440 W 114 PODIATRY CLINIC_DEACTIVATED,440 WEST 114TH STREET,10025-1796,10025,40.7988,-73.9683
X_440 W 114 PULMONARY CLINIC_DEACTIVATED,440 WEST 114TH STREET,10025-1796,10025,40.7988,-73.9683
X_440 W 114 SICKLE CELL CLINIC_DEACTIVATED,440 WEST 114TH STREET,10025-1796,10025,40.7988,-73.9683
X_440 W 114 SMOKING CESSATION CLINIC_DEACTIVATED,440 WEST 114TH STREET,10025-1796,10025,40.7988,-73.9683
X_440 W 114 SPINE CLINIC_DEACTIVATED,440 WEST 114TH STREET,10025-1796,10025,40.7988,-73.9683
X_440 W 114 SURG PLASTIC CLINIC_DEACTIVATED,440 WEST 114TH STREET,10025-1796,10025,40.7988,-73.9683
X_440 W 114 SURG VASC CVI_DEACTIVATED,440 W 114TH STREET,10025-1796,10025,40.7988,-73.9683
X_440 W 114 SURGERY CLINIC_DEACTIVATED,440 WEST 114TH STREET,10025-1796,10025,40.7988,-73.9683
X_440 W 114 UROLOGY CLINIC_DEACTIVATED,440 WEST 114TH STREET,10025-1796,10025,40.7988,-73.9683
X_440 W 114 VASC SURG DIAG_DEACTIVATED,440 W 114TH STREET,10025-1796,10025,40.7988,-73.9683
X_440 W 114TH ST ACC6 ENDOCRINOLOGY_DEACTIVATED,"440 WEST 114TH ST, 6TH FLOOR",10025-1796,10025,40.7988,-73.9683
X_440 W 114TH ST ACC6 INFECTIOUS DISEASE_DEACTIVATED,"440 WEST 114TH ST, ACC 6",10025-1796,10025,40.7988,-73.9683
X_440 W 114TH ST ACC6 NEPHROLOGY_DEACTIVATED,440 W 114TH ST,10025-1796,10025,40.7988,-73.9683
X_440 W 114TH ST ACC6 PODIATRY_DEACTIVATED,440 WEST 114TH STREET,10025-1796,10025,40.7988,-73.9683
X_440 W 114TH ST ACC6 PULMONARY_DEACTIVATED,"440 WEST 114TH ST, 6TH FLOOR",10025-1796,10025,40.7988,-73.9683
X_440 W 114TH ST ACC6 RHEUMATOLOGY_DEACTIVATED,"440 WEST 114TH ST, 6TH FLOOR",10025-1796,10025,40.7988,-73.9683
X_2637 BROADWAY PEDS CARDIO_DEACTIVATED,2637 BROADWAY,10025-5022,10025,40.7988,-73.9683
158 W 124TH ST ADULT CLINIC,158 W 124TH ST ADULT CLINIC,10027,10027,40.8119,-73.9535
158 W 124TH ST CHILD CLINIC,158 W 124ST,10027,10027,40.8119,-73.9535
158 W 124TH ST CITPD,158 W 124TH ST,10027,10027,40.8119,-73.9535
158 W 124TH ST IAM,158 W 124TH ST,10027,10027,40.8119,-73.9535
158 W 124TH ST IAM DENTAL,158 W 124TH ST,10027,10027,40.8119,-73.9535
158 W 124TH ST IAM PEDS,158 W 124TH ST,10027,10027,40.8119,-73.9535
158 W 124TH ST PHP,158 W 124TH ST,10027,10027,40.8119,-73.9535
158 W 124TH ST PSYCHIATRY,158 W 124TH ST,10027,10027,40.8119,-73.9535
1302 AMSTERDAM CARD,1302 Amsterdam Ave,10027,10027,40.8119,-73.9535
X_374 W 125 ST PULMONARY/SLEEP_DEACTIVATED,374 W 125th ST,10027,10027,40.8119,-73.9535
234 E 85TH CARD REHAB,234 East 85th Street,10028,10028,40.7761,-73.9536
234 E 85TH CARDIOLOGY,234 East 85th Street,10028,10028,40.7761,-73.9536
234 E 85TH ST DERM,"234 E 85th Street, 5th Floor",10028,10028,40.7761,-73.9536
234 E 85TH ST ENDO,234 E 85th St,10028,10028,40.7761,-73.9536
234 E 85TH ST ENT,"234 E 85TH Street, 4th Floor",10028,10028,40.7761,-73.9536
234 E 85TH ST IM,"234 E 85th Street,",10028,10028,40.7761,-73.9536
234 E 85TH ST IM 6FL,"234 E 85th Street,",10028,10028,40.7761,-73.9536
234 E 85TH ST NYEE MSH OPTH,"234 East 85th Street, 1st Floor",10028,10028,40.7761,-73.9536
234 E 85TH ST OB/GYN,234 East 85th Street 3rd Floor,10028,10028,40.7761,-73.9536
234 E 85TH ST PEDS GEN,"234 E 85th Street, 3rd Floor",10028,10028,40.7761,-73.9536
234 E 85TH ST URO 1FL,234 East 85th Street 1st Floor,10028,10028,40.7761,-73.9536
234 EAST 85TH ST DIABETES ALLIANCE,234 E 85th St,10028,10028,40.7761,-73.9536
944 PARK AVE. UROLOGY,944 Park Ave,10028,10028,40.7761,-73.9536
1421 3RD AVE CARDIOLOGY,1421 3rd Ave,10028,10028,40.7761,-73.9536
X_234 E 85TH CARD ENDO_DEACTIVATED,234 E 85th Street,10028,10028,40.7761,-73.9536
X_234 E 85TH PULMONARY_DEACTIVATED,234 E 85th St,10028,10028,40.7761,-73.9536
X_234 E 85TH SURG VAS_DEACTIVATED,234 E 85th St,10028,10028,40.7761,-73.9536
X_1421 3RD AVE CARDIOLOGY_DEACTIVATED,1421 3rd Ave,10028,10028,40.7761,-73.9536
234 E 85TH ST PEDS ENT,234 E 85TH ST,10028-3001,10028,40.7761,-73.9536
X_234 E 85 SURG BARIATRIC_DEACTIVATED,234 E 85 th St,10028-3135,10028,40.7761,-73.9536
241 E 86TH ST INTERNAL MEDICINE,241 East 86th Street  ,10028-3622,10028,40.7761,-73.9536
5 E 98 CLINICAL IMMUNOLOGY,5 East 98th Street,10029,10029,40.7916,-73.944
5 E 98  DERMATOLOGY,5 East 98th Street,10029,10029,40.7916,-73.944
5 E 98 ENDOCRINOLOGY,5 E 98th Street,10029,10029,40.7916,-73.944
5 E 98  ENT OTOLARYNGOLOGY,5 East 98th Street,10029,10029,40.7916,-73.944
5 E 98 GASTROENTEROLOGY,5 E 98th Street,10029,10029,40.7916,-73.944
5 E 98  HEMOPHILIA,5 E 98th Street,10029,10029,40.7916,-73.944
5 E 98 INFECTIOUS DISEASE,5 East 98th Street,10029,10029,40.7916,-73.944
5 E 98 INTERVENTIONAL RADIOLOGY,5 E 98TH STREET,10029,10029,40.7916,-73.944
5 E 98  MFM,5 EAST 98TH STEET,10029,10029,40.7916,-73.944
5 E 98  MOVEMENT DISORDER,5 E. 98th St. Box 1138,10029,10029,40.7916,-73.944
5 E 98  MULTIPLE SCLEROSIS,5 E. 98th St.,10029,10029,40.7916,-73.944
5 E 98 NEURO PALLIATIVE CARE,"5 E 98TH STREET,1st floor",10029,10029,40.7916,-73.944
5 E 98  NEUROLOGY,5 E. 98th St. Box 1139,10029,10029,40.7916,-73.944
5 E 98  NEUROSURG,5 E 98th Street,10029,10029,40.7916,-73.944
5 E 98  NEUROSURG 7FL,5 East 98th Street,10029,10029,40.7916,-73.944
5 E 98 NEUROSURGERY REHAB,5 East 98th St,10029,10029,40.7916,-73.944
5 E 98  OB/GYN,5 East 98th St,10029,10029,40.7916,-73.944
5 E 98  ORTHO JOINT,5 East 98th Street,10029,10029,40.7916,-73.944
5 E 98  ORTHO PHYSIATRY,5 East 98th Street,10029,10029,40.7916,-73.944
5 E 98  ORTHO SPINE,5 East 98th Street,10029,10029,40.7916,-73.944
5 E 98  ORTHO TRAUMA,5 East 98th Street,10029,10029,40.7916,-73.944
5 E 98  ORTHOPEDICS,5 East 98th Street,10029,10029,40.7916,-73.944
5 E 98  PEDS ALLERGY,5 E 98th Street,10029,10029,40.7916,-73.944
5 E 98  PEDS CHILD DEVELOP,5 E 98th Street,10029,10029,40.7916,-73.944
5 E 98  PEDS ENDO ASD,5 E 98th Street,10029,10029,40.7916,-73.944
5 E 98  PEDS GENERAL,5 E 98th Street,10029,10029,40.7916,-73.944
5 E 98  PEDS GI,5 E 98th Street,10029,10029,40.7916,-73.944
5 E 98  PEDS ID,5 E 98th Street,10029,10029,40.7916,-73.944
5 E 98  PEDS NEPHROLOGY,5 E 98th Street,10029,10029,40.7916,-73.944
5 E 98  PEDS NEUROLOGY,5 East 98th Street (Box 1206),10029,10029,40.7916,-73.944
5 E 98  PEDS PULMONARY,5 E 98th Street,10029,10029,40.7916,-73.944
5 E 98 PEDS RHEUM,5 east 98th Street 10th Floor,10029,10029,40.7916,-73.944
5 E 98 REHAB FLUOROSCOPY,5 East 98th Street,10029,10029,40.7916,-73.944
5 E 98 REHAB MEDICINE,5 East 98th Street,10029,10029,40.7916,-73.944
5 E 98  REHAB NEUROPSYCH,5 E 98th Street,10029,10029,40.7916,-73.944
5 E 98 RENAL/NEPHROLOGY,5 East 98th Street,10029,10029,40.7916,-73.944
5 E 98  RMTI INTESTINAL,5 East 98th Street,10029,10029,40.7916,-73.944
5 E 98  RMTI LIVER DISEASE,5 East 98th Street,10029,10029,40.7916,-73.944
5 E 98  RMTI LIVER SURGERY,5 East 98th Street,10029,10029,40.7916,-73.944
5 E 98  RMTI PEDS LIVER,5 East 98th Street,10029,10029,40.7916,-73.944
5 E 98 SLEEP,5 East 98th Street,10029,10029,40.7916,-73.944
5 E 98 ST GENOMIC MEDICINE,5 EAST 98TH STREET,10029,10029,40.7916,-73.944
5 E 98 ST REHAB ATC,5 EAST 98TH STREET,10029,10029,40.7916,-73.944
5 E 98  SURG BARIATRIC,5 East 98th Street,10029,10029,40.7916,-73.944
5 E 98  SURG COLORECTAL,5 East 98th Street,10029,10029,40.7916,-73.944
5 E 98  SURG ENDO PHYS,5 E 98th Street,10029,10029,40.7916,-73.944
5 E 98 SURG GENERAL,5 East 98th Street,10029,10029,40.7916,-73.944
5 E 98  SURG PEDIATRIC,5 East 98th Street,10029,10029,40.7916,-73.944
5 E 98  SURG PLASTIC,5 East 98th Street,10029,10029,40.7916,-73.944
5 E 98  SURG VASCULAR,5 East 98th Street,10029,10029,40.7916,-73.944
5 E 98  TRAN INST SM BOWEL,5 East 98th Street,10029,10029,40.7916,-73.944
5 E 98  TRANS INSTI KIDNEY,5 East 98th Street,10029,10029,40.7916,-73.944
5 E 98  TRANS INSTI LIVER,5 East 98th Street,10029,10029,40.7916,-73.944
5 E 98  TRANS INSTI PEDS,5 East 98th Street,10029,10029,40.7916,-73.944
5 E 98 TRANS INSTI PSYCH,"5 east 98 th street,",10029,10029,40.7916,-73.944
5 E 98  TRANS LIVING DONOR,5 East 98th Street,10029,10029,40.7916,-73.944
5 E 98  UROLOGY,5 East 98th Street,10029,10029,40.7916,-73.944
5 E 98TH ST SOCIAL WORK,5 East 98th Street,10029,10029,40.7916,-73.944
5 E 102 MSH PHYSICAL THERAPY,5 E 102nd Street,10029,10029,40.7916,-73.944
5-17 E 102 MSH OCCUPATIONAL THERAPY,5 East 102nd Street,10029,10029,40.7916,-73.944
10 E 102 PULMONARY,10 E 102 st,10029,10029,40.7916,-73.944
17 E 102 MSH REHAB NEUROPSYCHOLOGY,17 East 102nd Street,10029,10029,40.7916,-73.944
17 E 102 MSH SPEECH THERAPY,17 E 102nd Street,10029,10029,40.7916,-73.944
17 E 102 OPHTH EYE INFIRMARY,17 EAST 102 ST. 8TH FLOOR WEST,10029,10029,40.7916,-73.944
17 E 102 STUDENT HEALTH,"17 E 102nd St, 4th Fl",10029,10029,40.7916,-73.944
17 E 102ND DIABETES CLINIC,17 E 102 street 4th floor,10029,10029,40.7916,-73.944
17 E 102ND ENDOCRINE CLINIC,17 E 102nd Street,10029,10029,40.7916,-73.944
17 E 102ND GASTRO CLINIC,17 E 102nd St,10029,10029,40.7916,-73.944
17 E 102ND HOSP OPHTH,17 EAST 102ND ST 8TH FL EAST,10029,10029,40.7916,-73.944
17 E 102ND IAM PEDS,17 E 102nd Street 3rd floor,10029,10029,40.7916,-73.944
17 E 102ND IBD CENTER,17 E 102nd St,10029,10029,40.7916,-73.944
17 E 102ND IMA FIRM A,17 E 102 street 7th floor,10029,10029,40.7916,-73.944
17 E 102ND IMA FIRM B,17 E 102 street 7th floor,10029,10029,40.7916,-73.944
17 E 102ND IMA FIRM C,17 E 102 street 7th floor,10029,10029,40.7916,-73.944
17 E 102ND IMA FIRM D,17 E 102 street 7th floor,10029,10029,40.7916,-73.944
17 E 102ND IMA PEAKHEALTH,17 E 102 street 7th floor,10029,10029,40.7916,-73.944
17 E 102ND IMA UNASSIGNED,17 E 102 street 7th floor,10029,10029,40.7916,-73.944
17 E 102ND IMMUNOLOGY/ALLERGY CLINIC,17 East 102nd Street,10029,10029,40.7916,-73.944
17 E 102ND LIVER DISEASE CLINIC,17 E 102nd St,10029,10029,40.7916,-73.944
17 E 102ND MS NEUROPSYCHOLOGY CLINIC,17 E 102nd St,10029,10029,40.7916,-73.944
17 E 102ND NEURO HEADACHE CLINIC,17 E 102nd Street,10029,10029,40.7916,-73.944
17 E 102ND NEURO MOVEMENT DIS CLINIC,"17 East 102nd St, 4th Fl East, Ste D",10029,10029,40.7916,-73.944
17 E 102ND NEUROLOGY CLINIC,17 E 102nd Street,10029,10029,40.7916,-73.944
17 E 102ND NEUROSURGERY CLINIC,One Gustave L. Levy Place,10029,10029,40.7916,-73.944
17 E 102ND RENAL CLINIC,17 East 102nd Street,10029,10029,40.7916,-73.944
17 E 102ND RHEUMATOLOGY CLINIC,"17 E 102nd Street, 2nd Floor",10029,10029,40.7916,-73.944
17 E 102ND ST DERMATOLOGY,17 E 102nd Street,10029,10029,40.7916,-73.944
17 E 102ND ST ID,17 E 102nd Street 3rd floor,10029,10029,40.7916,-73.944
17 E 102ND ST IMA DEPRESSION CLINIC,"17 E 102 Street, 7th floor",10029,10029,40.7916,-73.944
17 E 102ND ST IMA PSYCH,"17 E 102 Street, 7th floor",10029,10029,40.7916,-73.944
17 E 102ND ST SICKLE CELL CLINIC,17 E 102nd Street,10029,10029,40.7916,-73.944
17 E 102ND ST WOUND CARE CLINIC,"17 E 102nd Street, 4th Floor,",10029,10029,40.7916,-73.944
17 E 102ND SURG COLORECTAL CLINIC,17 E 102nd St,10029,10029,40.7916,-73.944
17 E 102ND SURG GENERAL CLINIC,17 E 102nd Street,10029,10029,40.7916,-73.944
17 E 102ND SURG PLASTIC CLINIC,17 E 102nd St,10029,10029,40.7916,-73.944
17 E 102ND SURG VASCULAR CLINIC,"17 E 102nd Street, 4th Floor East, Suite D",10029,10029,40.7916,-73.944
17 E 102ND URO INCONTINENCE CLINIC,17 EAST 102nd STREET,10029,10029,40.7916,-73.944
17 E 102ND UROLOGY CLINIC,17 E 102nd Street,10029,10029,40.7916,-73.944
19 E 98TH ST PSYCH,19 E 98th St,10029,10029,40.7916,-73.944
19 E 98TH ST PSYCH EXTERN SERVICES,19 E 98th St,10029,10029,40.7916,-73.944
19 E 98TH ST PSYCH POST DOC SERVICES,"19 E 98th St,Floor 5",10029,10029,40.7916,-73.944
50 E 98TH ST PSYCH STM,50 E 98th St,10029,10029,40.7916,-73.944
53-55 E 96TH ST PSYCH,53-55 E 96th St,10029,10029,40.7916,-73.944
57-59 EAST 96TH STREET PSYCH,57-59 East 96th Street,10029,10029,40.7916,-73.944
57-59 EAST 96TH STREET PSYCH FPA CENTRALIZED,57-59 East 96th Street,10029,10029,40.7916,-73.944
234 E 85TH ST CARDIOLOGY,234 East 85th Street,10029,10029,40.7916,-73.944
345 E 102ND WTC PSYCH,345 East 102nd Street,10029,10029,40.7916,-73.944
638 COLUMBUS AVE DERM,638 Columbus Ave,10029,10029,40.7916,-73.944
638 COLUMBUS AVE SURG VASC,638 Columbus Ave,10029,10029,40.7916,-73.944
1160 5TH AVE PSYCH,1160 5th Ave,10029,10029,40.7916,-73.944
1176 5TH DUBIN MED ONC,1176 5th Avenue,10029,10029,40.7916,-73.944
1176 5TH DUBIN SURG ONC,1176 5th Avenue,10029,10029,40.7916,-73.944
1184 5TH PEDS ALLERGY,1184 5th Ave,10029,10029,40.7916,-73.944
1190 5TH AVE POMA 1ST FL,1190 5th Ave,10029,10029,40.7916,-73.944
1190 5TH CARD ASSOCS GP1S,1190 Fifth Avenue,10029,10029,40.7916,-73.944
1190 5TH CARD ASSOCS GP1W,1190 5TH AVE,10029,10029,40.7916,-73.944
1190 5TH CARD ENDO,1190 Fifth Avenue,10029,10029,40.7916,-73.944
1190 5TH CARDIO SURG,1190 Fifth Ave,10029,10029,40.7916,-73.944
1190 5TH CARDIOVASC INST,1190 Fifth Avenue,10029,10029,40.7916,-73.944
1240 PARK AVE PSYCH,1240 Park Ave,10029,10029,40.7916,-73.944
1249 5TH AVE DIALYSIS,1249 5TH AVE,10029,10029,40.7916,-73.944
1425 MADISON AVE PSYCH,1425 Madison Ave,10029,10029,40.7916,-73.944
1425 MADISON AVE PSYCH NP SVC,1425 Madison Ave,10029,10029,40.7916,-73.944
1425 MADISON AVE PSYCH RESEARCH,1425 Madison Ave,10029,10029,40.7916,-73.944
1425 MADISON AVE PSYCHIATRY WOMENS HEALTH,1425 Madison Ave,10029,10029,40.7916,-73.944
1428 MADISON AVE NEUROLOGY,1428 MADISON AVE,10029,10029,40.7916,-73.944
1428 MADISON AVE PSYCH,1428 Madison Ave,10029,10029,40.7916,-73.944
1440 MADISON GERIATRICS,17 East 102nd Street,10029,10029,40.7916,-73.944
1450 MAD RMTIFIBROSCAN,1450 Madison Ave,10029,10029,40.7916,-73.944
1450 MADISON AVE SLEEP CENTER,1450 Madison Ave,10029,10029,40.7916,-73.944
1450 MADISON NEURO ENDOVAS,1450 Madison Avenue,10029,10029,40.7916,-73.944
1468 MADISON ALD CLINIC PEDIATRIC ENDOCRINOLOGY,1468 Madison Ave,10029,10029,40.7916,-73.944
1468 MADISON AVE ALD CLINIC NEUROLOGY,1468 Madison Ave,10029,10029,40.7916,-73.944
1468 MADISON AVE COVID THERAPEUTIC CTR,1468 Madison Avenue,10029,10029,40.7916,-73.944
1468 MADISON AVE DENTAL,1468 Madison Ave,10029,10029,40.7916,-73.944
1468 MADISON AVE DERMATOLOGY,1468 MADISON,10029,10029,40.7916,-73.944
1468 MADISON AVE ENT,1468 Madison Avenue,10029,10029,40.7916,-73.944
1468 MADISON AVE NEUROMUSCULAR MULTI-DISCIPLINARY,1468 Madison Ave,10029,10029,40.7916,-73.944
1468 MADISON AVE NUCLEAR MEDICINE,1468 Madison Ave,10029,10029,40.7916,-73.944
1468 MADISON AVE OMS,1468 Madison Avenue,10029,10029,40.7916,-73.944
1468 MADISON AVE ORTHOPEDICS JOINT REPLACEMENT CLASS,1468 Madison Ave,10029,10029,40.7916,-73.944
1468 MADISON AVE PEDS ENT,"1468 Madison Avenue, Annenberg 4th Floor",10029,10029,40.7916,-73.944
1468 MADISON CANCER,1468 MADISON AVENUE,10029,10029,40.7916,-73.944
1468 MADISON HEME/ONC PEDS,1468 Madison Ave,10029,10029,40.7916,-73.944
1468 MADISON  HEMOPHILIA,1468 Madison Ave,10029,10029,40.7916,-73.944
1468 MADISON HOSP PEDS GEN,1468 Madison Ave,10029,10029,40.7916,-73.944
1468 MADISON NEUROLOGY CLINIC,"1468 Madison Avenue,",10029,10029,40.7916,-73.944
1468 MADISON  NEUROSURG,1468 Madison Ave,10029,10029,40.7916,-73.944
1468 MADISON PEDS CARDIO,1468 Madison Ave,10029,10029,40.7916,-73.944
1468 MADISON PULMONARY LAB,1468 Madison Avenue,10029,10029,40.7916,-73.944
1468 MADISON THOR SURG,1468 Madison Ave,10029,10029,40.7916,-73.944
1468 MADISON  WTC PREV MED,1468 Madison Ave,10029,10029,40.7916,-73.944
1468 MADISON WTC PSYCH,One Gustave L. Levy Place,10029,10029,40.7916,-73.944
1468 MADISON WTC PSYCH,1468 Madison Ave,10029,10029,40.7916,-73.944
1470 MADISON CANCER CENTER,1470 Madison Avenue,10029,10029,40.7916,-73.944
1470 MADISON THERAPEUTIC INFUSION,1470 Madison Avenue,10029,10029,40.7916,-73.944
HOSP ENT AUDIOLOGY,17 E 102ND ST,10029,10029,40.7916,-73.944
HOSP GENETICS,1470 Madison Avenue,10029,10029,40.7916,-73.944
HOSP NEURO SEIZURE,17 E 102nd Street,10029,10029,40.7916,-73.944
HOSP OB COVID,1176 5th Avenue,10029,10029,40.7916,-73.944
HOSP ORTHOPEDICS,17 E 102nd St,10029,10029,40.7916,-73.944
HOSP ORTHOPEDICS PEDS,17 E 102nd St,10029,10029,40.7916,-73.944
HOSP PEDS CFSP,One Gustave L. Levy Place,10029,10029,40.7916,-73.944
HOSP PEDS CHEST,One Gustave L. Levy Place,10029,10029,40.7916,-73.944
HOSP PEDS NEURO,One Gustave L. Levy Place,10029,10029,40.7916,-73.944
HOSP PEDS SCH HEALTH,One Gustave L Levy Place,10029,10029,40.7916,-73.944
HOSP PODIATRY,17 E 102nd St,10029,10029,40.7916,-73.944
HOSP PSY CLINIC ON STE,1240 Park Avenue,10029,10029,40.7916,-73.944
HOSP PSYCH ADULT 1160,One Gustave L. Levy Place,10029,10029,40.7916,-73.944
HOSP PSYCH CHILD,1 Gustave L. Levy Place,10029,10029,40.7916,-73.944
HOSP PSYCH IAC,1240 Park Avenue,10029,10029,40.7916,-73.944
HOSP PSYCH PHP,1 Gustave L Levy Place,10029,10029,40.7916,-73.944
HOSP PSYCH TRAINING,1160 5th Avenue,10029,10029,40.7916,-73.944
HOSP SBH PS 38,232 E 103rd St,10029,10029,40.7916,-73.944
HOSP SBH PS 83/PS 182,219 E 109th St,10029,10029,40.7916,-73.944
HOSP SBH PS 108,1615 Madison Avenue,10029,10029,40.7916,-73.944
HOSP SBH TPEC,240 E 109th St,10029,10029,40.7916,-73.944
IMA PAIN MANAGEMENT,"17 E 102 Street, 7th fl",10029,10029,40.7916,-73.944
MSHS TELEHEALTH,One Gustave L. Levy Place,10029,10029,40.7916,-73.944
MSM OT,One Gustave L. Levy Place,10029,10029,40.7916,-73.944
MSM PT,One Gustave L. Levy Place,10029,10029,40.7916,-73.944
MSM SLP,One Gustave L. Levy Place,10029,10029,40.7916,-73.944
PEDS VISITING DOC HSE CALL,1 Gustave L Levy Place,10029,10029,40.7916,-73.944
THERAPEUTIC INF,1470 Madison Avenue,10029,10029,40.7916,-73.944
VISITING DOCS HOUSE CALL,17 E 102nd St,10029,10029,40.7916,-73.944
VISITING DOCTORS,17 E 102nd Street,10029,10029,40.7916,-73.944
X_10 E 102 PRIMARY CARE MED_DEACTIVATED,10 East 102nd Street,10029,10029,40.7916,-73.944
X_10 E 102 PULMONARY MED_DEACTIVATED,10 East 102nd Street,10029,10029,40.7916,-73.944
X_17 E 102 IMA PACT HSE CALL_DEACTIVATED,17 E 102nd St,10029,10029,40.7916,-73.944
X_17 E 102 OPHTHALMOLOGY_DEACTIVATED,17 EAST 102 ST. 8TH FLOOR WEST,10029,10029,40.7916,-73.944
X_17 E 102 ORTHOPEDICS_DEACTIVATED,17 E 102nd St.,10029,10029,40.7916,-73.944
X_17 E 102ND IMA DIAB EX PRG_DEACTIVATED,17 E 102 street 7th floor,10029,10029,40.7916,-73.944
X_1468 HOSP PEDS GI_DEACTIVATED,1468 Madison Ave,10029,10029,40.7916,-73.944
X_1468 MADISON  PEDS ENDO_DEACTIVATED,1468 Madison Ave,10029,10029,40.7916,-73.944
X_2249 2ND AVE CARD_DEACTIVATED,2249 2nd Ave,10029,10029,40.7916,-73.944
X_FPA CARDIOTHORACIC SURGERY_DEACTIVATED,1190 Fifth Ave,10029,10029,40.7916,-73.944
X_FPA-DEPARTMENT_DEACTIVATED,One Gustave L. Levy Place ,10029,10029,40.7916,-73.944
X_HOSP DERMATOLOGY_DEACTIVATED,One Gustave L. Levy Place,10029,10029,40.7916,-73.944
X_HOSP ENT AUDIOLOGY_DEACTIVATED,17 E 102ND ST,10029,10029,40.7916,-73.944
X_HOSP GENETICS_DEACTIVATED,"1468 Madison Avenue,(Annenberg Building)",10029,10029,40.7916,-73.944
X_HOSP IMMUNOLOGY/ALLERGY_DEACTIVATED,17 East 102nd Street,10029,10029,40.7916,-73.944
X_HOSP NEURO HEAD_DEACTIVATED,17 E 102nd Street,10029,10029,40.7916,-73.944
X_HOSP NEURO MOVE DIS_DEACTIVATED,17 E 102nd Street,10029,10029,40.7916,-73.944
X_HOSP NEURO SEIZURE_DEACTIVATED,17 E 102nd Street,10029,10029,40.7916,-73.944
X_HOSP NEURO STROKE_DEACTIVATED,17 E 102nd Street,10029,10029,40.7916,-73.944
X_HOSP NEUROLOGY_DEACTIVATED,17 E 102nd Street,10029,10029,40.7916,-73.944
X_HOSP NEUROSURGERY_DEACTIVATED,One Gustave L. Levy Place ,10029,10029,40.7916,-73.944
X_HOSP ORTHOPEDICS PEDS_DEACTIVATED,17 E 102nd St,10029,10029,40.7916,-73.944
X_HOSP ORTHOPEDICS_DEACTIVATED,17 E 102nd St,10029,10029,40.7916,-73.944
X_HOSP PED CHILD DEVELOP_DEACTIVATED,One Gustave L. Levy Place,10029,10029,40.7916,-73.944
X_HOSP PEDS ALLERGY_DEACTIVATED,One Gustave L. Levy Place,10029,10029,40.7916,-73.944
X_HOSP PEDS GU_DEACTIVATED,One Gustave L. Levy Place,10029,10029,40.7916,-73.944
X_HOSP PEDS GU_DEACTIVATED,1468 Madison Avenue 4th Floor,10029,10029,40.7916,-73.944
X_HOSP PODIATRY _DEACTIVATED,17 E 102nd St,10029,10029,40.7916,-73.944
X_HOSP PSYCH ADULT 1160_DEACTIVATED,One Gustave L. Levy Place,10029,10029,40.7916,-73.944
X_HOSP PSYCH ADULT KCC_DEACTIVATED,One Gustave L. Levy Place,10029,10029,40.7916,-73.944
X_HOSP PSYCH CHILD_DEACTIVATED,1 Gustave L. Levy Place,10029,10029,40.7916,-73.944
X_HOSP PSYCH GERIATRICS_DEACTIVATED,One Gustave L. Levy PLace,10029,10029,40.7916,-73.944
X_HOSP PSYCH IAC_DEACTIVATED,1240 Park Avenue,10029,10029,40.7916,-73.944
X_HOSP PSYCH PHP_DEACTIVATED,1 Gustave L Levy Place,10029,10029,40.7916,-73.944
X_HOSP PSYCH TRAINING_DEACTIVATED,1160 5th Avenue,10029,10029,40.7916,-73.944
X_HOSP RENAL_DEACTIVATED,17 East 102nd Street,10029,10029,40.7916,-73.944
X_HOSP SBH MCSM MEDICAL_DEACTIVATED,280 Pleasant Avenue,10029,10029,40.7916,-73.944
X_HOSP SBH PS 38_DEACTIVATED,232 E 103rd St,10029,10029,40.7916,-73.944
X_HOSP SBH PS 83/PS 182_DEACTIVATED,219 E 109th St,10029,10029,40.7916,-73.944
X_HOSP SBH PS 108_DEACTIVATED,1615 Madison Avenue,10029,10029,40.7916,-73.944
X_HOSP SBH TPEC_DEACTIVATED,240 E 109th St,10029,10029,40.7916,-73.944
X_HOSP SURG COLORECTAL_DEACTIVATED,17 E 102nd St,10029,10029,40.7916,-73.944
X_HOSP SURG GENERAL_DEACTIVATED,17 E 102nd St,10029,10029,40.7916,-73.944
X_HOSP SURG INCONTINENCE_DEACTIVATED,17 EAST 102nd STREET,10029,10029,40.7916,-73.944
X_HOSP SURG PLASTIC_DEACTIVATED,17 E 102nd St,10029,10029,40.7916,-73.944
X_HOSP SURG UROLOGY_DEACTIVATED,17 E 102nd St,10029,10029,40.7916,-73.944
X_HOSP SURG VASCULAR_DEACTIVATED,17 E 102nd St,10029,10029,40.7916,-73.944
X_IMA PAIN MANAGEMENT_DEACTIVATED,"17 E 102 Street, 7th fl",10029,10029,40.7916,-73.944
X_IMA PSYCH_DEACTIVATED,"17 E 102 Street, 7th floor",10029,10029,40.7916,-73.944
X_MSQ INFUSION THERAPY_DEACTIVATED,2510 30th ave,10029,10029,40.7916,-73.944
X_ORAL SURGERY CLINIC_DEACTIVATED,1468 Madison Ave 2nd floor,10029,10029,40.7916,-73.944
X_THERAPEUTIC INF_DEACTIVATED,1470 Madison Avenue,10029,10029,40.7916,-73.944
1399 PARK AVE PSYCH,1399 Park Ave,10029-4503,10029,40.7916,-73.944
17 E 102 MSH REHAB MEDICINE,17 East 102nd Street,10029-5204,10029,40.7916,-73.944
17 E 102ND BIOLOGICS TREATMENT CENTER,"17 E 102nd St,",10029-5204,10029,40.7916,-73.944
17 E 102ND IMA FIRM E,17 E 102ND ST,10029-5204,10029,40.7916,-73.944
17 E 102ND MEDICATION ACCESS PROGRAM (MAP),17 East 102nd Street,10029-5204,10029,40.7916,-73.944
17 E 102ND ST GERIATRICS,17 East 102nd Street,10029-5204,10029,40.7916,-73.944
17 E 102ND ST HEMOPHILIA,17 E 102ND ST,10029-5204,10029,40.7916,-73.944
17 E 102ND ST MULTIPLE SCLEROSIS,17 E 102nd St,10029-5204,10029,40.7916,-73.944
17 E 102ND ST SLEEP CENTER,17 E 102 Street,10029-5204,10029,40.7916,-73.944
1184 5TH AVE PEDIATRIC INTEGRATIVE SLEEP CENTER,1184 5th Ave,10029-5204,10029,40.7916,-73.944
X_17 E 102ND ST INFECTIOUS DISEASE_DEACTIVATED,"17 E 102nd Street, 8th Floor",10029-5204,10029,40.7916,-73.944
10 E 102ND ST INFUSION WHITE BAG,1470 Madison Avenue,10029-6030,10029,40.7916,-73.944
5 E 98 MULTIPLE SCLEROSIS WELLNESS,"5 E 98th St,1st floor",10029-6501,10029,40.7916,-73.944
5 E 98 PEDS GYN,5 E 98TH ST,10029-6501,10029,40.7916,-73.944
5 E 98 PEDS NEWBORN FOLLOW-UP,5 E 98th Street,10029-6501,10029,40.7916,-73.944
5 E 98 PEDS REHAB MEDICINE,5 East 98th Street,10029-6501,10029,40.7916,-73.944
5 E 98 PEDS SPORTS MED,5 E 98TH ST,10029-6501,10029,40.7916,-73.944
5 E 98 ST NEUROSURGERY PEDS,5 East 98th Street,10029-6501,10029,40.7916,-73.944
5 E 98 ST PEDS UROLOGY,5 East 98th Street,10029-6501,10029,40.7916,-73.944
5 E 98 ST REHAB INNOVATIONS THERAPY,5 E 98TH ST,10029-6501,10029,40.7916,-73.944
5 E 98  SURG HEPATOBILIARY,5 E 98th Street,10029-6501,10029,40.7916,-73.944
5 E 98TH ST PREOP,5 East 98th Street,10029-6501,10029,40.7916,-73.944
1176 5TH AVE GYNECOLOGY CLINIC,1176 5th Avenue,10029-6503,10029,40.7916,-73.944
1176 5TH AVE OBGYN SOCIAL WORK,1176 5th Avenue,10029-6503,10029,40.7916,-73.944
1176 5TH AVE OBGYN ULTRASOUND,1176 5th Avenue,10029-6503,10029,40.7916,-73.944
1176 5TH AVE OBSTETRICS CLINIC,1176 5th Avenue,10029-6503,10029,40.7916,-73.944
1176 5TH AVE OBSTETRICS HIGH RISK,1176 5th Avenue,10029-6503,10029,40.7916,-73.944
1176 5TH AVE OBSTETRICS ULTRASOUND NST,1176 5th Avenue,10029-6503,10029,40.7916,-73.944
1190 5TH AVE PODIATRY,1190 5TH AVE,10029-6503,10029,40.7916,-73.944
MSH CONDITION MANAGEMENT,1 GUSTAVE L LEVY PL,10029-6504,10029,40.7916,-73.944
VIRTUAL PRIMARY CARE,One Gustave L. Levy Place,10029-6504,10029,40.7916,-73.944
1440 MADISON GERI HOME CERTS,1440 Madison Ave,10029-6508,10029,40.7916,-73.944
1450 MADISON AVE CARDIAC REHAB,1450 MADISON AVE,10029-6508,10029,40.7916,-73.944
1450 MADISON AVE HEMO DIALYSIS,1450 MADISON AVE,10029-6508,10029,40.7916,-73.944
1450 MADISON AVE PULMONARY LAB,1450 Madison Avenue Floor,10029-6508,10029,40.7916,-73.944
1468 MADISON AVE AUDIOLOGY,"1468 Madison ave, Annenberg Bld",10029-6508,10029,40.7916,-73.944
1468 MADISON AVE COHENS PEDIATRICS AERO DISGESTIVE CENTER,"1468 MADISON AVENUE,",10029-6508,10029,40.7916,-73.944
1468 MADISON AVE HOSP PED CHILD DEVELOP,1468 MADISON AVE,10029-6508,10029,40.7916,-73.944
1468 MADISON AVE HOSP PEDS ALLERGY,1468 MADISON AVE,10029-6508,10029,40.7916,-73.944
1468 MADISON AVE HOSP PEDS CHEST,1468 MADISON AVE,10029-6508,10029,40.7916,-73.944
1468 MADISON AVE HOSP PEDS GI,1468 MADISON AVE,10029-6508,10029,40.7916,-73.944
1468 MADISON AVE HOSP PEDS NEURO,1468 MADISON AVE,10029-6508,10029,40.7916,-73.944
1468 MADISON AVE NEURO STROKE CLINIC,1468 Madison Ave,10029-6508,10029,40.7916,-73.944
1468 MADISON AVE PEDS COMPLEX CARE,1468 Madison Avenue,10029-6508,10029,40.7916,-73.944
1468 MADISON AVE PEDS DDC PSYCH,1468 MADISON AVE,10029-6508,10029,40.7916,-73.944
1468 MADISON AVE PEDS ENDO,1468 Madison Ave,10029-6508,10029,40.7916,-73.944
1468 MADISON AVE PEDS HEALTHY LIFESTYLE CLINIC,"1468  Madison Ave, Annenberg Building",10029-6508,10029,40.7916,-73.944
1468 MADISON AVE PHYSICAL THERAPY,1468 MADISON AVE,10029-6508,10029,40.7916,-73.944
1468 MADISON  PEDS PREV MED,1468 Madison Ave,10029-6508,10029,40.7916,-73.944
1468 MADISON URO PEDS CLINIC,1468 MADISON AVE,10029-6508,10029,40.7916,-73.944
5 E 98 ST GERIATRICS,5 E 98TH ST,10029-6514,10029,40.7916,-73.944
1425 MADISON AVE HEART TRANSPLANT PSYCHIATRY,1425 Madison Ave,10029-6514,10029,40.7916,-73.944
1425 MADISON AVE LUNG TRANSPLANT PSYCHIATRY,1425 Madison Ave,10029-6514,10029,40.7916,-73.944
1425 MADISON AVE PSYCH CSRPG,1425 Madison Avenue,10029-6514,10029,40.7916,-73.944
1425 MADISON AVE PSYCH ESKETAMIN,1425 Madison Ave,10029-6514,10029,40.7916,-73.944
1425 MADISON PSYCH CENTRALIZED,1425 Madison Ave,10029-6514,10029,40.7916,-73.944
1425 TRANS INSTI PSYCH,"1425 Madison Ave,",10029-6514,10029,40.7916,-73.944
1470 MADISON AVE PSYCH,1470 Madison Ave,10029-6542,10029,40.7916,-73.944
1428 MADISON GENETICS,1428 Madison Ave,10029-6574,10029,40.7916,-73.944
X_17 E 102 GENETICS 132_DEACTIVATED,17 E 102nd Street,10029-6574,10029,40.7916,-73.944
443 W 135 SCH,443 W 135 St,10031,10031,40.825,-73.9498
X_343 WEST 145TH STREET CARDIOLOGY_DEACTIVATED,343 W 145th St,10031,10031,40.825,-73.9498
5 HAMILTON PLACE CARDIOLOGY,5 HAMILTON PL,10031-6801,10031,40.825,-73.9498
286 FT WASHINGTON UROLOGY,286 FT WASHINGTON AVE,10032,10032,40.8385,-73.9416
X_286 FT WASHINGTON UROLOGY_DEACTIVATED,286 FT WASHINGTON AVE,10032,10032,40.8385,-73.9416
X_573 W 161 ST CARDIOLOGY_DEACTIVATED,573 West 161 st,10032-6145,10032,40.8385,-73.9416
2360 AMSTRDAM SURG VAS,2360 Amsterdam Ave,10033,10033,40.8514,-73.9366
2360 AMSTRDM SURG BARI,2360 Amsterdam Ave,10033,10033,40.8514,-73.9366
X_500 W 185TH ST OCCUPATIONAL HEALTH_DEACTIVATED,"500 W 185TH ST, ROOM 520",10033-3201,10033,40.8514,-73.9366
521 W 181ST CARDIOLOGY,521 W 181st ST,10033-5102,10033,40.8514,-73.9366
X_521 W 181ST ST CARDIOLOGY_DEACTIVATED,521 W 181st St,10033-5102,10033,40.8514,-73.9366
2360 AMSTERDAM AVE CARDIOLOGY,2360 Amsterdam Ave,10033-7362,10033,40.8514,-73.9366
5030 BRDWY SURG VASC,5030 Broadway,10034,10034,40.868,-73.9217
5030 BROADWAY CARD,5030 Broadway,10034,10034,40.868,-73.9217
5030 BROADWAY IM,5030 Broadway,10034,10034,40.868,-73.9217
5030 BROADWAY URGENT CARE,5030 Broadway,10034,10034,40.868,-73.9217
X_5030 BROADWAY NETWORK IM_DEACTIVATED,5030 Broadway,10034,10034,40.868,-73.9217
53 E 124 CARDIOLOGY,53 E 124 St,10035,10035,40.8021,-73.9375
520 E 117TH DIALYSIS,520 E 117th St,10035,10035,40.8021,-73.9375
X_HOSP PEDS SCH HEALTH_DEACTIVATED,2351 1st Ave,10035,10035,40.8021,-73.9375
X_2771 FREDERICK DOUGLAS GASTROENTEROLOGY_DEACTIVATED,2771 FREDERICK DOUGLAS AVE,10036,10036,40.7596,-73.9891
X_2771 FREDERICK DOUGLAS INTERNAL MEDICINE_DEACTIVATED,2771 FREDERICK DOUGLAS AVE,10036,10036,40.7596,-73.9891
2771 FREDERICK DOUGLAS INTERNAL MEDICINE,2771 FREDERICK DOUGLASS BLVD,10039-3027,10039,40.8262,-73.9376
HOSP SBH JREC MEDICAL,317 East 67th Street,10065,10065,40.7649,-73.9627
X_HOSP SBH JREC MEDICAL_DEACTIVATED,317 East 67th Street,10065,10065,40.7649,-73.9627
X_910 PARK AVE ORTHOPEDICS_DEACTIVATED,910 Park Avenue,10075,10075,40.7736,-73.9567
5 E 98 4TH FL PAIN/FLUOROSCOPY,5 East 98th Street,10128,10128,40.7813,-73.9509
5 E 98 6TH FL PAIN/FLUOROSCOPY,5 East 98th Street,10128,10128,40.7813,-73.9509
5 E 98  PAIN/ANESTHESIOLOGY,5 East 98th Street,10128,10128,40.7813,-73.9509
177 E 87TH ST CARDIAC ARRHYTHMIA,177 E 87th ST,10128,10128,40.7813,-73.9509
177 E 87TH ST CARDIOLOGY,177 E 87 ST,10128,10128,40.7813,-73.9509
177 E 87TH ST NUCLEAR,177 E 87th ST,10128,10128,40.7813,-73.9509
1425 MADISON NEURO PSYCH,1425 Madison Ave,10128,10128,40.7813,-73.9509
HOSP ADOL DENTAL,320 East 94th Street,10128,10128,40.7813,-73.9509
HOSP ADOL OPTOMETRY,312 E. 94TH ST.,10128,10128,40.7813,-73.9509
HOSP ADOLESCENT MEDICAL,312 E. 94TH ST.,10128,10128,40.7813,-73.9509
HOSP ADOLESCENT MENTAL HEALTH,312 E. 94TH ST.,10128,10128,40.7813,-73.9509
X_ HOSP ADOL PRENATAL,312 E. 94TH ST.,10128,10128,40.7813,-73.9509
X_1075 PARK AVE CARDIOLOGY_DEACTIVATED,1075 Park Ave.,10128,10128,40.7813,-73.9509
X_HOSP ADOLESCENT MENTAL HEALTH_DEACTIVATED,312 E. 94TH ST.,10128,10128,40.7813,-73.9509
X_HOSP ADOLESCENT PROJECT IMPACT_DEACTIVATED,312 E. 94TH ST.,10128,10128,40.7813,-73.9509
53-55 E 96TH PSYCH EWDO,53 E 96TH ST,10128-0813,10128,40.7813,-73.9509
1802 2ND AVE GERIATRICS,1802 2ND AVE,10128-5628,10128,40.7813,-73.9509
373 PARK AVE SOUTH CARDIO ECHO,373 Park Ave S,10154,10154,40.7578,-73.9725
373 PARK AVE SOUTH CARDIO NUCLEAR,373 Park Ave S,10154,10154,40.7578,-73.9725
373 PARK AVE SOUTH CARDIO VASCULAR,373 Park Ave S,10154,10154,40.7578,-73.9725
373 PARK AVE SOUTH CARDIO VEIN,373 Park Ave S,10154,10154,40.7578,-73.9725
373 PARK AVE SOUTH CARDIOLOGY,373 Park Ave S,10154,10154,40.7578,-73.9725
797 BRIGHTON AVE INTERNAL MEDICINE,797 Brighton Avenue,10301,10301,40.6281,-74.0962
2099 FOREST AVE INTERNAL MEDICINE,2099 Forest Avenue,10303,10303,40.6325,-74.1679
11 RALPH PL. CARD,11 Ralph Pl SI,10304,10304,40.6057,-74.0943
11 RALPH PLACE CARDIOLOGY SUITE 109 & 201,11 Ralph Pl SI Suite 109,10304,10304,40.6057,-74.0943
774 MANOR RD PODIATRY,"774 Manor Road,",10304,10304,40.6057,-74.0943
X_774 MANOR RD PODIATRY_DEACTIVATED,"774 Manor Road,",10304,10304,40.6057,-74.0943
2052 RICHMOND ENT OTOLARYN,2052 Richmond Road,10306,10306,40.5706,-74.1252
2052 RICHMOND RMTI LIVER DISEASE,2052 Richmond Road,10306,10306,40.5706,-74.1252
2052 RICHMOND WTC PREV MED,2052 Richmond Road,10306,10306,40.5706,-74.1252
2052 RICHMOND WTC PSYCH,2052 Richmond Road,10306,10306,40.5706,-74.1252
2052 RICHMOND RD PEDS ENT,2052 RICHMOND RD,10306-2583,10306,40.5706,-74.1252
355 BARD AVE CARDIO SURG,"355 Bard Avenue,",10310,10310,40.6319,-74.1168
283 BARD AVE INTERNAL MEDICINE,283 BARD AVE,10310-1664,10310,40.6319,-74.1168
283 BARD AVE ORTHOPEDICS,283 BARD AVE,10310-1664,10310,40.6319,-74.1168
4982 HYLAN BLVD INTERNAL MEDICINE,4982 HYLAN BLVD,10312,10312,40.547,-74.1832
4982 HYLAN BLVD THORACIC SURGERY,4982 HYLAN BLVD,10312,10312,40.547,-74.1832
476 KLONDIKE AVE INTERNAL MEDICINE,476 Klondike Avenue,10314,10314,40.602,-74.1629
1441 SOUTH AVE GASTROENTEROLOGY,1441 SOUTH AVE,10314,10314,40.602,-74.1629
2315 VICTORY BLVD INTERNAL MEDICINE MAIN FL,2315 Victory Blvd,10314,10314,40.602,-74.1629
4982 HYLAN BLVD ORTHOPEDICS,4982 HIGHLAND BLVD,10314,10314,40.602,-74.1629
129 SLOSSON AVE GASTROENTEROLOGY,129 SLOSSON AVE,10314-2522,10314,40.602,-74.1629
1200 SOUTH AVE BREAST SURGERY,1200 South Avenue,10314-3413,10314,40.602,-74.1629
1200 SOUTH AVE GASTROENTEROLOGY,1200 SOUTH AVE,10314-3413,10314,40.602,-74.1629
1200 SOUTH AVE THORACIC SURGERY,1200 SOUTH AVE,10314-3413,10314,40.602,-74.1629
1441 SOUTH AVE BREAST SURGERY,1441 SOUTH AVE,10314-3779,10314,40.602,-74.1629
1441 SOUTH AVE HEM ONC,1441 SOUTH AVE,10314-3779,10314,40.602,-74.1629
2315 VICTORY BLVD INTERNAL MEDICINE LOWER LEVEL,2315 VICTORY BLVD,10314-6623,10314,40.602,-74.1629
774 MANOR RD ENDOCRINOLOGY,774 MANOR ROAD,10314-7003,10314,40.602,-74.1629
X_774 MANOR RD ENDOCRINOLOGY_DEACTIVATED,774 MANOR ROAD,10314-7003,10314,40.602,-74.1629
1301 SOUTHERN BLVD CARDIOLOGY,1301 SOUTHERN BLVD,10459-1504,10459,40.8249,-73.893
141 SOUTH CENTRAL AVE INTERNAL MEDICINE JMP,141 SOUTH CENTRAL AVE,10530,10530,41.0206,-73.809
244 WESTCHESTER AVE ENT,244 WESTCHESTER AVE,10530,10530,41.0206,-73.809
X_141 SOUTH CENTRAL AVE INTERNAL MEDICINE JMP_DEACTIVATED,141 SOUTH CENTRAL AVE,10530,10530,41.0206,-73.809
X_141 SOUTH CENTRAL AVENUE NEUROLOGY_DEACTIVATED,"141 SOUTH CENTRAL AVE, Suite 102",10530,10530,41.0206,-73.809
X_244 WESTCHESTER AVE ENT_DEACTIVATED,244 WESTCHESTER AVE,10530,10530,41.0206,-73.809
X_888 ROUTE 6 CARDIOLOGY_DEACTIVATED,888 Route 6,10541,10541,41.3789,-73.7518
495 CNTRL PARK PEDSGAS,495 Centrl Pk Ave Scsdle,10583,10583,40.9893,-73.7922
X_341 CENTRAL AVE INTERNAL MEDICINE_DEACTIVATED,341 CENTRAL PARK AVE,10583,10583,40.9893,-73.7922
341 CENTRAL PARK AVE ALLERGY,341 Central Park Ave,10583-1301,10583,40.9893,-73.7922
341 CENTRAL PARK AVE CARDIOLOGY,341 Central Park Ave,10583-1301,10583,40.9893,-73.7922
341 CENTRAL PARK AVE ENDOCRINOLOGY,341 CENTRAL PARK AVE,10583-1301,10583,40.9893,-73.7922
341 CENTRAL PARK AVE GASTROENTEROLOGY,341 CENTRAL PARK AVE,10583-1301,10583,40.9893,-73.7922
341 CENTRAL PARK AVE GEN SURG,341 CENTRAL PARK AVE,10583-1301,10583,40.9893,-73.7922
341 CENTRAL PARK AVE INTERNAL MEDICINE,341 Central Park Ave,10583-1301,10583,40.9893,-73.7922
341 CENTRAL PARK AVE KIDNEY TRANSPLANT,341 CENTRAL PARK AVENUE,10583-1301,10583,40.9893,-73.7922
341 CENTRAL PARK AVE LIVER,341 Central Park Ave,10583-1301,10583,40.9893,-73.7922
341 CENTRAL PARK AVE LIVER TRANSPLANT,341 CENTRAL PARK AVENUE,10583-1301,10583,40.9893,-73.7922
341 CENTRAL PARK AVE NEUROSUR,341 Central Park Ave,10583-1301,10583,40.9893,-73.7922
341 CENTRAL PARK AVE OBGYN,341 CENTRAL PARK AVE,10583-1301,10583,40.9893,-73.7922
341 CENTRAL PARK AVE ORTHOPEDICS,341 CENTRAL PARK AVE,10583-1301,10583,40.9893,-73.7922
341 CENTRAL PARK AVE PAIN MANAGEMENT,341 CENTRAL PARK AVE,10583-1301,10583,40.9893,-73.7922
341 CENTRAL PARK AVE PEDIATRICS SPORTS MEDICINE,341 CENTRAL PARK AVE,10583-1301,10583,40.9893,-73.7922
341 CENTRAL PARK AVE PEDS NEUROLOGY,341 Central Park Avenue,10583-1301,10583,40.9893,-73.7922
341 CENTRAL PARK AVE PODIATRY,341 CENTRAL PARK AVE,10583-1301,10583,40.9893,-73.7922
341 CENTRAL PARK AVE PULMONARY,341 CENTRAL PARK AVE,10583-1301,10583,40.9893,-73.7922
341 CENTRAL PARK AVE RMTI LIVER DISEASE,341 CENTRAL PARK AVENUE,10583-1301,10583,40.9893,-73.7922
341 CENTRAL PARK AVE SURG BREAST,341 Central Park Avenue,10583-1301,10583,40.9893,-73.7922
341 CENTRAL PARK AVE SURG HEPATO,341 Central Park Ave,10583-1301,10583,40.9893,-73.7922
341 CENTRAL PARK AVE UROLOGY,341 Central Park Ave,10583-1301,10583,40.9893,-73.7922
244 WESTCHESTER ENT,4th Fl,10604-2907,10604,41.0616,-73.7379
1020 WARBURTON SELIKOFF,1020 Warburton Ave.,10701,10701,40.9452,-73.8811
1086 N BROADWAY CARDIOLOGY,1086 N BROADWAY,10701-1112,10701,40.9452,-73.8811
1086 N BROADWAY GASTROENTEROLOGY,1086 N BROADWAY,10701-1112,10701,40.9452,-73.8811
1086 N BROADWAY INTERNAL MEDICINE,1086 N BROADWAY,10701-1112,10701,40.9452,-73.8811
1086 N BROADWAY LIVER INSTITUTE,1086 N Broadway,10701-1112,10701,40.9452,-73.8811
1086 N BROADWAY NEUROLOGY,1086 N BROADWAY,10701-1112,10701,40.9452,-73.8811
1086 N BROADWAY PAIN MANAGEMENT,1086 N BROADWAY,10701-1112,10701,40.9452,-73.8811
1086 N BROADWAY THORACIC SURGERY,1086 N BROADWAY,10701-1112,10701,40.9452,-73.8811
984 N BROADWAY ORTHOPEDICS,984 N Broadway,10701-1318,10701,40.9452,-73.8811
X_1010 N BROADWAY INTERNAL MEDICINE_DEACTIVATED,1010 N Broadway,10701-1330,10701,40.9452,-73.8811
77 PONDFIELD RD CARDIOLOGY,77 Pondfield Road,10708-3809,10708,40.9383,-73.831
77 PONDFIELD RD ENDOCRINOLOGY,77 PONDFIELD RD,10708-3809,10708,40.9383,-73.831
77 PONDFIELD RD OBGYN,77 PONDFIELD RD,10708-3809,10708,40.9383,-73.831
116 5TH AVE CARDIOLOGY,116 5TH AVE,10803-1504,10803,40.899,-73.8067
116 5TH AVE GYN,116 5TH AVE,10803-1504,10803,40.899,-73.8067
116 5TH AVE INTERNAL MEDICINE,116 5TH AVE,10803-1504,10803,40.899,-73.8067
116 5TH AVE LIVER DISEASE,116 5th Avenue,10803-1504,10803,40.899,-73.8067
116 5TH AVE NEPHROLOGY,116 FIFTH AVE,10803-1504,10803,40.899,-73.8067
116 5TH AVE NEUROLOGY PEDS,116 Fifth Avenue,10803-1504,10803,40.899,-73.8067
116 5TH AVE NEUROSURGERY,116 5th Ave,10803-1504,10803,40.899,-73.8067
116 5TH AVE PODIATRY,116 5TH AVE,10803-1504,10803,40.899,-73.8067
116 5TH AVE RMTI PEDS LIVER DISEASE,116 FIFTH AVE,10803-1504,10803,40.899,-73.8067
116 5TH AVE SURG ONCOLOGY,116 5th Avenue,10803-1504,10803,40.899,-73.8067
116 5TH AVE UROLOGY,116 Fifth Avenue,10803-1504,10803,40.899,-73.8067
116 5TH AVE VASCULAR SURGERY,116 FIFTH AVE,10803-1504,10803,40.899,-73.8067
X_116 5TH AVE ENDOCRINOLOGY_DEACTIVATED,116 5TH AVE,10803-1504,10803,40.899,-73.8067
222 ROUTE 59 OCCUPATIONAL HEALTH,222 Route 59,10901,10901,41.1422,-74.122
1155 N BLVD ENT OTOLARYNGOLOGY,"1155 Northern Boulevard,Floor 3",11030,11030,40.7926,-73.6886
1155 NORTHERN BLVD BARIATRIC SURGERY,1155 Northern Blvd,11030,11030,40.7926,-73.6886
1155 NORTHERN BLVD CARDIOLOGY,1155 Northern Blvd,11030,11030,40.7926,-73.6886
1155 NORTHERN BLVD ENDOCRINE,1155 Northern Blvd,11030,11030,40.7926,-73.6886
1155 NORTHERN BLVD GASTROENTEROLOGY,1155 Northern Blvd,11030,11030,40.7926,-73.6886
1155 NORTHERN BLVD GYNECOLOGY,1155 Northern Blvd,11030,11030,40.7926,-73.6886
1155 NORTHERN BLVD INTERNAL MEDICINE,1155 Northern Blvd,11030,11030,40.7926,-73.6886
1155 NORTHERN BLVD ORTHO,1155 Northern Boulevard,11030,11030,40.7926,-73.6886
1155 NORTHERN BLVD UROLOGY,1155 Northern Boulevard,11030,11030,40.7926,-73.6886
X_1155 NORTHERN BLVD BARIATRIC SURGERY_DEACTIVATED,1155 Northern Blvd,11030,11030,40.7926,-73.6886
X_1155 NORTHERN BLVD CARDIOLOGY_DEACTIVATED,1155 Northern Blvd,11030,11030,40.7926,-73.6886
X_1155 NORTHERN BLVD ENDOCRINE_DEACTIVATED,1155 Northern Blvd,11030,11030,40.7926,-73.6886
X_1155 NORTHERN BLVD GASTROENTEROLOGY_DEACTIVATED,1155 Northern Blvd,11030,11030,40.7926,-73.6886
X_1155 NORTHERN BLVD INTERNAL MEDICINE_DEACTIVATED,1155 Northern Blvd,11030,11030,40.7926,-73.6886
X_1155 NORTHERN BLVD ORTHO_DEACTIVATED,1155 Northern Boulevard,11030,11030,40.7926,-73.6886
1155 NORTHERN BLVD NEPHROLOGY,1155 NORTHERN BLVD,11030-3040,11030,40.7926,-73.6886
1155 NORTHERN BLVD PULMONOLOGY,1155 NORTHERN BLVD,11030-3040,11030,40.7926,-73.6886
1155 NORTHERN BLVD REHAB,1155 Northern Blvd,11030-3040,11030,40.7926,-73.6886
1155 NORTHERN BLVD SURG VASCULAR,1155 NORTHERN BLVD,11030-3040,11030,40.7926,-73.6886
1155 NORTHERN BLVD VACCINE POD,1155 Northern Blvd,11030-3040,11030,40.7926,-73.6886
X_1155 NORTHERN BLVD SURG VASCULAR_DEACTIVATED,1155 NORTHERN BLVD,11030-3040,11030,40.7926,-73.6886
2800 MARCUS ORT SPINE,2800 MARCUS AVE,11042,11042,40.7576,-73.6983
25-10 30TH AVE CEREBROVASCULAR STROKE CENTER,25-10TH 30TH AVENUE,11102,11102,40.7714,-73.925
25-20 30TH AVE BARIATRIC SURGERY,25-20 30th Avenue,11102,11102,40.7714,-73.925
25-20 30TH AVE BREAST SURGERY,25-20 30th Avenue,11102,11102,40.7714,-73.925
25-20 30TH AVE CARDIOVASCULAR SURGERY,25-20 30th Avenue,11102,11102,40.7714,-73.925
25-20 30TH AVE DIABETES ALLIANCE,25-20 30th Avenue,11102,11102,40.7714,-73.925
25-20 30TH AVE ENDOCRINOLOGY,25-20 30th Avenue,11102,11102,40.7714,-73.925
25-20 30TH AVE GASTROENTEROLOGY,25-20 30th Avenue,11102,11102,40.7714,-73.925
25-20 30TH AVE INTERNAL MEDICINE,25-20 30th Avenue,11102,11102,40.7714,-73.925
25-20 30TH AVE INTERVENTIONAL RADIOLOGY,25-20 30th Avenue,11102,11102,40.7714,-73.925
25-20 30TH AVE NEPHROLOGY,25-20 30th Avenue,11102,11102,40.7714,-73.925
25-20 30TH AVE NEUROLOGY,25-20 30th Avenue,11102,11102,40.7714,-73.925
25-20 30TH AVE NEUROSURGERY,25-20 30th Avenue,11102,11102,40.7714,-73.925
25-20 30TH AVE OB/GYN,25-20 30th Avenue,11102,11102,40.7714,-73.925
25-20 30TH AVE OPHTHALMOLOGY,25-20 30th Avenue,11102,11102,40.7714,-73.925
25-20 30TH AVE ORTHOPEDICS,25-20 30th Avenue,11102,11102,40.7714,-73.925
25-20 30TH AVE PEDIATRICS,25-20 30th Avenue,11102,11102,40.7714,-73.925
25-20 30TH AVE PULMONARY,25-20 30th Avenue,11102,11102,40.7714,-73.925
25-20 30TH AVE RHEUMATOLOGY,25-20 30th Avenue,11102,11102,40.7714,-73.925
25-20 30TH AVE RMTI  LIVER DISEASE,25-20 30th Avenue,11102,11102,40.7714,-73.925
25-20 30TH AVE SURGERY,25-20 30th Avenue,11102,11102,40.7714,-73.925
25-20 30TH AVE TRANSPLANT INSTITUTE KIDNEY,25-20 30th Avenue,11102,11102,40.7714,-73.925
25-20 30TH AVE TRANSPLANT INSTITUTE LIVER,25-20 30th Avenue,11102,11102,40.7714,-73.925
25-20 30TH AVE UROLOGY,25-20 30th Avenue,11102,11102,40.7714,-73.925
25-20 30TH AVE VASCULAR SURGERY,25-20 30th Avenue,11102,11102,40.7714,-73.925
30-14 CRESCENT STREET CARDIOLOGY,"30-14 Crescent Street, 2nd Floor",11102,11102,40.7714,-73.925
30-14 CRESCENT STREET CARDIOLOGY CT,"30-14 Crescent Street, 2nd Floor",11102,11102,40.7714,-73.925
30-14 CRESCENT STREET CARDIOLOGY ECHO,"30-14 Crescent Street, 2nd Floor",11102,11102,40.7714,-73.925
30-14 CRESCENT STREET CARDIOLOGY NUCLEAR,"30-14 Crescent Street, 2nd Floor",11102,11102,40.7714,-73.925
30-14 CRESCENT STREET CARDIOLOGY VASCULAR,"30-14 Crescent Street, 2nd Floor",11102,11102,40.7714,-73.925
30-14 CRESCENT STREET CARDIOLOGY VEIN,"30-14 Crescent Street, 2nd Floor",11102,11102,40.7714,-73.925
30-14 CRESCENT STREET DIABETES ALLIANCE,30-14 Crescent Street,11102,11102,40.7714,-73.925
30-14 CRESCENT STREET ENDOCRINOLOGY,30-14 Crescent Street,11102,11102,40.7714,-73.925
30-14 CRESCENT STREET GASTROENTEROLOGY,30-14 Crescent Street,11102,11102,40.7714,-73.925
30-14 CRESCENT STREET HEM ONC,"30-14 Crescent Street, 3rd Floor",11102,11102,40.7714,-73.925
30-14 CRESCENT STREET IAM,30-14 Crescent Street,11102,11102,40.7714,-73.925
30-14 CRESCENT STREET INJECTION,"30-14 Crescent Street, 3rd Floor",11102,11102,40.7714,-73.925
30-14 CRESCENT STREET LIVER MEDICINE,30-14 Crescent Street,11102,11102,40.7714,-73.925
30-14 CRESCENT STREET OCCUPATIONAL THERAPY,30-14 Crescent Street,11102,11102,40.7714,-73.925
30-14 CRESCENT STREET PHYSICAL THERAPY,30-14 Crescent Street,11102,11102,40.7714,-73.925
30-14 CRESCENT STREET RHEUMATOLOGY,30-14 Crescent Street,11102,11102,40.7714,-73.925
30-14 CRESCENT STREET SPEECH THERAPY,30-14 Crescent Street,11102,11102,40.7714,-73.925
X_MSQ PHYSICIAN ASSOC_DEACTIVATED,27-15 30th Avenue,11102,11102,40.7714,-73.925
25-20 30TH AVE HEM ONC,25-20 30TH AVE,11102-2445,11102,40.7714,-73.925
25-20 30TH AVE INFUSION,25-20 30TH AVE,11102-2445,11102,40.7714,-73.925
X_25-20 30TH AVE HEM ONC INFUSION_DEACTIVATED,25-20 30TH AVE,11102-2445,11102,40.7714,-73.925
X_25-20 30TH AVE THERAPEUTIC INFUSION_DEACTIVATED,25-20 30TH AVE,11102-2445,11102,40.7714,-73.925
X_27-15 30 AVE THERAPEUTIC INFUSION_DEACTIVATED,25-20 30TH AVE,11102-2445,11102,40.7714,-73.925
X_27-15 30TH AVE HEM ONC INFUSION_DEACTIVATED,25-20 30TH AVE,11102-2445,11102,40.7714,-73.925
X_27-15 30TH AVE HEM ONC_DEACTIVATED,25-20 30TH AVE,11102-2445,11102,40.7714,-73.925
25-10 30TH AVE COVID TEST,25-10 30th Avenue,11102-2448,11102,40.7714,-73.925
25-20 30TH AVE LIVER MEDICINE,25-20 30th Ave,11102-2448,11102,40.7714,-73.925
25-20 30TH AVE REHAB,25-20 30th Avenue,11102-2448,11102,40.7714,-73.925
25-20 30TH AVE RMTI PEDS LIVER DISEASE,2520 30TH AVE,11102-2448,11102,40.7714,-73.925
X_25-10 30TH AVE EEG,25-10 30th Avenue,11102-2448,11102,40.7714,-73.925
46-04 31ST AVE CARDIOLOGY,46-04 31ST AVE,11103,11103,40.7624,-73.9136
46-04 31ST AVE INTERNAL MEDICINE,46-04 31ST AVE,11103,11103,40.7624,-73.9136
46-04 31ST AVE VASCULAR SURGERY,46-04 31st Avenue,11103,11103,40.7624,-73.9136
46-04 31ST AVE ENDOCRINOLOGY,46-04 31st Ave,11103-1842,11103,40.7624,-73.9136
X_MSQ FAMILY HEALTH ASSO_DEACTIVATED,31-60 21st Street,11106,11106,40.7619,-73.9316
300 CADMAN PLAZA ALLERGY,300 Cadman Plaza West,11201,11201,40.6955,-73.988
300 CADMAN PLAZA CARDIOLOGY,300 CADMAN PLAZA,11201,11201,40.6955,-73.988
300 CADMAN PLAZA DERMATOLOGY,300 CADMAN PLAZA,11201,11201,40.6955,-73.988
300 CADMAN PLAZA ENDOCRINOLOGY,300 CADMAN PLAZA,11201,11201,40.6955,-73.988
300 CADMAN PLAZA FLUOROSCOPY,300 CADMAN PLAZA,11201,11201,40.6955,-73.988
300 CADMAN PLAZA NEPHROLOGY,300 CADMAN PLAZA,11201,11201,40.6955,-73.988
300 CADMAN PLAZA NEUROLOGY,300 CADMAN PLAZA,11201,11201,40.6955,-73.988
300 CADMAN PLAZA OB/GYN,300 Cadman Plaza,11201,11201,40.6955,-73.988
300 CADMAN PLAZA ORTHOPAEDICS,300 CADMAN PLAZA,11201,11201,40.6955,-73.988
300 CADMAN PLAZA PAIN MANAGEMENT,300 CADMAN PLAZA,11201,11201,40.6955,-73.988
300 CADMAN PLAZA PEDIATRICS,300 CADMAN PLAZA,11201,11201,40.6955,-73.988
300 CADMAN PLAZA REHAB MED,300 Cadman Plaza West,11201,11201,40.6955,-73.988
300 CADMAN PLAZA RHEUMATOLOGY,300 CADMAN PLAZA,11201,11201,40.6955,-73.988
300 CADMAN PLAZA THOR SURG,300 CADMAN PLAZA,11201,11201,40.6955,-73.988
300 CADMAN PLAZA TRANSPLANT KIDNEY,300 CADMAN PLAZA,11201,11201,40.6955,-73.988
300 CADMAN PLAZA TRANSPLANT LIVER,300 CADMAN PLAZA,11201,11201,40.6955,-73.988
300 CADMAN PLAZA TRANSPLANT LIVER DISEASE,300 CADMAN PLAZA,11201,11201,40.6955,-73.988
300 CADMAN PLAZA UROLOGY,300 CADMAN PLAZA,11201,11201,40.6955,-73.988
300 CADMAN PLAZA VAS SURG,300 CADMAN PLAZA,11201,11201,40.6955,-73.988
X_110 YORK ST URGENT CARE _DEACTIVATED,110 York Street,11201,11201,40.6955,-73.988
X_300 CADMAN PLAZA PULMONARY,300 CADMAN PLAZA,11201,11201,40.6955,-73.988
X_300 CADMAN PLAZA URGENT CARE_DEACTIVATED,300 Cadman Plaza,11201,11201,40.6955,-73.988
X_300 CADMAN PLAZA WEST PAIN MANAGEMENT_DEACTIVATED,300 Cadman Plaza West,11201,11201,40.6955,-73.988
300 CADMAN PLAZA FAMILY MEDICINE,300 CADMAN PLAZA,11201-3229,11201,40.6955,-73.988
300 CADMAN PLAZA INTERNAL MEDICINE,300 CADMAN PLAZA,11201-3229,11201,40.6955,-73.988
300 CADMAN PLAZA NEUROSURGERY,300 Cadman Plaza West,11201-3229,11201,40.6955,-73.988
300 CADMAN PLAZA PRIMARY PLUS,300 CADMAN PLZ W,11201-3229,11201,40.6955,-73.988
300 CADMAN PLAZA REHAB MED,300 Cadman Plaza W,11201-3229,11201,40.6955,-73.988
443 LINDEN CARD,443 Linden Blvd Bkln,11203,11203,40.6499,-73.9343
672 UTICA AVE CARDIOLOGY,672 Utica Avenue,11203-2210,11203,40.6499,-73.9343
X_585 BUSHWICK AVE CARDIOLOGY_DEACTIVATED,585 Bushwick Ave,11206-4628,11206,40.7022,-73.9425
270 1/2 9TH ST CARDIOLOGY,270 1/2 9TH STREET,11215,11215,40.6658,-73.9819
X_270 1/2 9TH ST CARDIOLOGY_DEACTIVATED,270 1/2 9TH STREET,11215,11215,40.6658,-73.9819
465 OCEAN PARKWAY OB/GYN,465 Ocean Parkway,11218,11218,40.6434,-73.976
591 OCN PRKWY SURG GEN,591 Ocn Prwy Bkln,11218,11218,40.6434,-73.976
731 CONEY ISLAND CARD,731 Coney Island Ave,11218,11218,40.6434,-73.976
132 GREENPOINT AVE CARDIO REMOTE,132 GREENPOINT AVE,11222,11222,40.7281,-73.9479
132 GREENPOINT AVE CARDIOLOGY,132 GREENPOINT AVE,11222,11222,40.7281,-73.9479
X_132 GREENPOINT AVE CARDIO REMOTE_DEACTIVATED,132 GREENPOINT AVE,11222,11222,40.7281,-73.9479
X_132 GREENPOINT AVE CARDIOLOGY_DEACTIVATED,132 GREENPOINT AVE,11222,11222,40.7281,-73.9479
1414 NEWKIRK AVE CARDIOLOGY,1414 Newkirk Ave,11226,11226,40.6462,-73.9565
7210 13TH AVE UROLOGY,72 -10 13th Avenue,11228,11228,40.6162,-74.0137
1819 13ST SURGERY,1819 EAST 13TH STREET,11229-2870,11229,40.6003,-73.9384
X_1203 AVENUE J CARD_DEACTIVATED,1203 Avenue J,11230,11230,40.6223,-73.9654
275 8TH AVE IAM,275 8th Ave,11234,11234,40.6083,-73.9103
1977 FLATBUSH AVE CARDIOLOGY,1977 Flatbush Avenue,11234,11234,40.6083,-73.9103
3131 KINGS HIGHWAY ENT,3131 KINGS HIGHWAY,11234,11234,40.6083,-73.9103
3131 KINGS HIGHWAY INTERNAL MEDICINE,"3131 KINGS HIGHWAY, D-3",11234,11234,40.6083,-73.9103
3131 KINGS HIGHWAY NEUROLOGY,3131 Kings Highway,11234,11234,40.6083,-73.9103
3131 KINGS HIGHWAY UROLOGY,3131 KINGS HIGHWAY,11234,11234,40.6083,-73.9103
3131 KINGS THOR SURG,3131 Kings Highway,11234,11234,40.6083,-73.9103
3201 KINGS HWY CARDIOLOGY,3201 Kings Hwy,11234,11234,40.6083,-73.9103
3201 KINGS HWY INTERVENTIONAL RADIOLOGY,3201 Kings Hwy,11234,11234,40.6083,-73.9103
 3201 KINGS HWY PST,3201 Kings Hwy,11234,11234,40.6083,-73.9103
3201 KINGS HWY VASCULAR LAB,3201 Kings Hwy,11234,11234,40.6083,-73.9103
X_275 8TH AVE IAM_DEACTIVATED,275 8th Ave,11234,11234,40.6083,-73.9103
X_1977 FLATBUSH AVE CARDIOLOGY_DEACTIVATED,1977 Flatbush Avenue,11234,11234,40.6083,-73.9103
X_3131 KINGS CARDIOLOGY_DEACTIVATED,3131 KINGS HIGHWAY,11234,11234,40.6083,-73.9103
X_3131 KINGS HIGHWAY ENT_DEACTIVATED,3131 KINGS HIGHWAY,11234,11234,40.6083,-73.9103
X_3131 KINGS HIGHWAY INTERNAL MEDICINE_DEACTIVATED,"3131 KINGS HIGHWAY, D-3",11234,11234,40.6083,-73.9103
X_3131 KINGS HIGHWAY NEUROLOGY_DEACTIVATED,3131 Kings Highway,11234,11234,40.6083,-73.9103
X_3131 KINGS HIGHWAY UROLOGY_DEACTIVATED,3131 KINGS HIGHWAY,11234,11234,40.6083,-73.9103
X_3201 KINGS HWY CARDIOLOGY_DEACTIVATED,3201 Kings Hwy,11234,11234,40.6083,-73.9103
X_3201 KINGS HWY INTERVENTIONAL RADIOLOGY_DEACTIVATED,3201 Kings Hwy,11234,11234,40.6083,-73.9103
X_3201 KINGS HWY PST_DEACTIVATED,3201 Kings Hwy,11234,11234,40.6083,-73.9103
X_3201 KINGS HWY VASCULAR LAB_DEACTIVATED,3201 Kings Hwy,11234,11234,40.6083,-73.9103
3131 KINGS CHEMO INFUSION,3131 KINGS HIGHWAY,11234-2644,11234,40.6083,-73.9103
3131 KINGS HIGHWAY CARDIOLOGY,3131 KINGS HIGHWAY,11234-2644,11234,40.6083,-73.9103
3131 KINGS HIGHWAY GENERAL SURGERY,3131 KINGS HWY,11234-2644,11234,40.6083,-73.9103
3131 KINGS HIGHWAY GYN ONC,3131 KINGS HIGHWAY,11234-2644,11234,40.6083,-73.9103
3131 KINGS HIGHWAY NEURO ENDOVASC,3131 KINGS HIGHWAY SUITE 205,11234-2644,11234,40.6083,-73.9103
3131 KINGS HIGHWAY NEUROSURGERY,3131 KINGS HWY,11234-2644,11234,40.6083,-73.9103
3131 KINGS HIGHWAY OB/GYN,3131 KINGS HWY,11234-2644,11234,40.6083,-73.9103
3131 KINGS HIGHWAY ORTHOPEDICS,3131 Kings Highway,11234-2644,11234,40.6083,-73.9103
3131 KINGS HIGHWAY PAIN ANESTHESIOLOGY,3131 KINGS HWY,11234-2644,11234,40.6083,-73.9103
3131 KINGS HIGHWAY PAIN FLUOROSCOPY,3131 KINGS HWY,11234-2644,11234,40.6083,-73.9103
3131 KINGS HIGHWAY SURGERY,3131 KINGS HIGHWAY,11234-2644,11234,40.6083,-73.9103
3131 KINGS HWY BREAST SURGERY,3131 Kings Highway,11234-2644,11234,40.6083,-73.9103
3131 KINGS MED ONC CLINIC,3131 KINGS HIGHWAY,11234-2644,11234,40.6083,-73.9103
3131 KINGS THERAPY INFUSION,3131 KINGS HIGHWAY,11234-2644,11234,40.6083,-73.9103
X_3131 KINGS CHEMO INFUSION_DEACTIVATED,3131 KINGS HIGHWAY,11234-2644,11234,40.6083,-73.9103
X_3131 KINGS HIGHWAY GYN ONC_DEACTIVATED,3131 KINGS HIGHWAY,11234-2644,11234,40.6083,-73.9103
X_3131 KINGS HWY BREAST SURGERY_DEACTIVATED,3131 Kings Highway,11234-2644,11234,40.6083,-73.9103
X_3131 KINGS MED ONC CLINIC_DEACTIVATED,3131 KINGS HIGHWAY,11234-2644,11234,40.6083,-73.9103
X_3131 KINGS THERAPY INFUSION_DEACTIVATED,3131 KINGS HIGHWAY,11234-2644,11234,40.6083,-73.9103
1523 VOORHIES AVE CARDIOLOGY,1523 Voorhies Ave Bkln,11235,11235,40.5838,-73.9487
1523 VOORHIES AVE COLORECTAL SURGERY,1523 VOORHIES AVE,11235-3912,11235,40.5838,-73.9487
9413 FLATLANDS AVE. 2ND FLOOR (CARDIOLOGY),9413 Flatlands Ave Bkln,11236,11236,40.64,-73.9019
X_125 ST NICHOLAS AVE ENT,125 ST. NICHOLAS AVE,11237,11237,40.7032,-73.9198
101 BROADWAY OB/GYN,101 BROADWAY,11249,11249,40.7096,-73.9649
135 N 7TH ST ALLERGY,135 NORTH 7TH ST,11249,11249,40.7096,-73.9649
135 N 7TH ST DERMATOLOGY,135 NORTH 7TH ST,11249,11249,40.7096,-73.9649
135 N 7TH ST FAMILY MEDICINE,135 NORTH 7TH ST,11249,11249,40.7096,-73.9649
135 N 7TH ST GASTROENTEROLOGY,135 NORTH 7TH ST,11249,11249,40.7096,-73.9649
135 N 7TH ST ORTHOPEDICS,135 NORTH 7TH ST,11249,11249,40.7096,-73.9649
432 BEDFORD CARDIOLOGY,432 Bedford Ave Bkln,11249,11249,40.7096,-73.9649
X_135 N 7TH ST ALLERGY_DEACTIVATED,135 NORTH 7TH ST,11249,11249,40.7096,-73.9649
X_135 N 7TH ST FAMILY MEDICINE_DEACTIVATED,135 NORTH 7TH ST,11249,11249,40.7096,-73.9649
X_135 N 7TH ST GASTROENTEROLOGY_DEACTIVATED,135 NORTH 7TH ST,11249,11249,40.7096,-73.9649
X_135 N 7TH ST ORTHOPEDICS_DEACTIVATED,135 NORTH 7TH ST,11249,11249,40.7096,-73.9649
135-16 ROOSEVELT COLORECT,135-16 Roosevelt Ave,11354,11354,40.7684,-73.8269
135-16 ROOSEVELT HEPATO,135-16 Roosevelt Ave,11354,11354,40.7684,-73.8269
135-16 ROOSEVELT SURG VAS,135-16 Roosevelt Ave,11354,11354,40.7684,-73.8269
3916 PRINCE LVR SURG,3916 PRINCE ST.,11354-5361,11354,40.7684,-73.8269
135-16 ROOSVELT AVE NEUROSURGERY,135-16 Roosevelt Avenue,11354-5366,11354,40.7684,-73.8269
37-12 82ND ST CARDIOLOGY,37-12 82ND ST,11372,11372,40.7517,-73.8833
37-12 82ND ST DIABETES ALLIANCE,37-12 82ND ST,11372,11372,40.7517,-73.8833
37-12 82ND ST ENDOCRINOLOGY,37-12 82ND ST,11372,11372,40.7517,-73.8833
37-12 82ND ST GASTROENTEROLOGY,37-12 82ND ST,11372,11372,40.7517,-73.8833
37-12 82ND ST GYN,37-12 82ND ST,11372,11372,40.7517,-73.8833
37-12 82ND ST HEM ONC,37-12 82ND ST,11372,11372,40.7517,-73.8833
37-12 82ND ST INTERNAL MEDICINE,37-12 82ND ST,11372,11372,40.7517,-73.8833
37-12 82ND ST LIVER,37-12 82ND ST,11372,11372,40.7517,-73.8833
37-12 82ND ST NEUROLOGY,37-12 82ND ST,11372,11372,40.7517,-73.8833
37-12 82ND ST ORTHOPEDICS,37-12 82ND ST,11372,11372,40.7517,-73.8833
37-12 82ND ST PODIATRY,37-12 82ND ST,11372,11372,40.7517,-73.8833
37-12 82ND ST SURG GENERAL,37-12 82ND ST,11372,11372,40.7517,-73.8833
37-12 82ND ST UROLOGY,37-12 82ND ST,11372,11372,40.7517,-73.8833
NEW 37-12 82ND ST CARDIOLOGY,37-12 82ND ST,11372,11372,40.7517,-73.8833
NEW 37-12 82ND ST HEM ONC,37-12 82ND ST,11372,11372,40.7517,-73.8833
X_37-12 82ND ST CARDIOLOGY_DEACTIVATED,37-12 82ND ST,11372,11372,40.7517,-73.8833
X_37-12 82ND ST DERMATOLOGY_DEACTIVATED,37-12 82ND ST,11372,11372,40.7517,-73.8833
X_37-12 82ND ST DIABETES ALLIANCE_DEACTIVATED,37-12 82ND ST,11372,11372,40.7517,-73.8833
X_37-12 82ND ST ENDOCRINOLOGY_DEACTIVATED,37-12 82ND ST,11372,11372,40.7517,-73.8833
X_37-12 82ND ST GASTROENTEROLOGY_DEACTIVATED,37-12 82ND ST,11372,11372,40.7517,-73.8833
X_37-12 82ND ST GYN_DEACTIVATED,37-12 82ND ST,11372,11372,40.7517,-73.8833
X_37-12 82ND ST HEM ONC_DEACTIVATED,37-12 82ND ST,11372,11372,40.7517,-73.8833
X_37-12 82ND ST INTERNAL MEDICINE_DEACTIVATED,37-12 82ND ST,11372,11372,40.7517,-73.8833
X_37-12 82ND ST LIVER_DEACTIVATED,37-12 82ND ST,11372,11372,40.7517,-73.8833
X_37-12 82ND ST NEUROLOGY_DEACTIVATED,37-12 82ND ST,11372,11372,40.7517,-73.8833
X_37-12 82ND ST ORTHOPEDICS_DEACTIVATED,37-12 82ND ST,11372,11372,40.7517,-73.8833
X_37-12 82ND ST PODIATRY_DEACTIVATED,37-12 82ND ST,11372,11372,40.7517,-73.8833
X_37-12 82ND ST SURG GENERAL_DEACTIVATED,37-12 82ND ST,11372,11372,40.7517,-73.8833
40-23 74TH ST CARDIOLOGY,40-23 74TH ST,11373-5603,11373,40.7388,-73.8781
99-01 QNS BLVD PHYSICAL MEDICINE AND REHAB,99-01 Queens Blvd,11374,11374,40.7243,-73.8623
99-01 QNS BLVD PRIMARY CARE,99-01 Queens Blvd,11374,11374,40.7243,-73.8623
X_99-01 QNS BLVD PHYSICAL MEDICINE AND REHAB_DEACTIVATED,99-01 Queens Blvd,11374,11374,40.7243,-73.8623
99-01 QNS BLVD CARDIOLOGY,99-01 Queens Blvd,11374-4512,11374,40.7243,-73.8623
99-01 QNS BLVD ENDOCRINOLOGY,99-01 Queens Blvd,11374-4512,11374,40.7243,-73.8623
99-01 QNS BLVD NEUROLOGY,99-01 Queens Blvd,11374-4512,11374,40.7243,-73.8623
99-01 QNS BLVD NEUROSURGERY,99-01 QUEENS BLVD,11374-4512,11374,40.7243,-73.8623
99-01 QNS BLVD OBGYN,99-01 Queens Blvd,11374-4512,11374,40.7243,-73.8623
99-01 QNS BLVD RHEUMATOLOGY,99-01 Queens Blvd,11374-4512,11374,40.7243,-73.8623
99-01 QUEENS BLVD CLINICAL IMMUNOLOGY,99-01 Queens Blvd,11374-4512,11374,40.7243,-73.8623
385 SENECA AVE CARDIOLOGY,385 Seneca Ave,11385-1340,11385,40.7016,-73.8876
86-11 LEFF SURG VASCULAR,86-11 Lefferts Blvd,11418,11418,40.6996,-73.8344
119-12 94TH AVE CARD,119-12 94TH AVE,11418,11418,40.6996,-73.8344
200 OLD COUNTRY RD CARDIOLOGY,200 OLD COUNTRY RD,11501,11501,40.7468,-73.6389
X_200 OLD CNTRY RD INTERNAL MEDICINE_DEACTIVATED,200 OLD COUNTRY RD,11501,11501,40.7468,-73.6389
X_200 OLD COUNTRY RD ENDOCRINOLOGY_DEACTIVATED,200 OLD COUNTRY RD,11501,11501,40.7468,-73.6389
X_200 OLD COUNTRY RD UROLOGY_DEACTIVATED,200 OLD COUNTRY RD,11501,11501,40.7468,-73.6389
X_200 OLD COUNTRY RD INTERNAL MED_DEACTIVATED,200 OLD COUNTRY ROAD,11501-4235,11501,40.7468,-73.6389
2277 GRAND AVE DIABETES EDUCATION,2277 Grand Avenue,11510,11510,40.6542,-73.6095
393 OLD COUNTRY RD CARDIOLOGY,393 Old Country Rd,11514-2131,11514,40.7498,-73.6122
393 OLD COUNTRY RD ENDOCRINOLOGY,393 Old Country Rd,11514-2131,11514,40.7498,-73.6122
393 OLD COUNTRY RD INTERNAL MEDICINE,393 Old Country Rd,11514-2131,11514,40.7498,-73.6122
393 OLD COUNTRY RD PULMONOLOGY,393 OLD COUNTRY RD,11514-2131,11514,40.7498,-73.6122
393 OLD COUNTRY RD REHAB MED,393 OLD COUNTRY RD,11514-2131,11514,40.7498,-73.6122
393 OLD COUNTRY RD UROLOGY,393 OLD COUNTRY RD,11514-2131,11514,40.7498,-73.6122
1100 FRANKLIN AVE SURG COLORECTAL,1100 FRANKLIN AVE,11530,11530,40.7275,-73.6376
1100 FRANKLIN AVE OBS SURGERY,1100 FRANKLIN AVE,11530-3221,11530,40.7275,-73.6376
1436 BROADWAY CARDIOLOGY,1436 BROADWAY,11557,11557,40.6379,-73.692
1436 BROADWAY GASTROENTEROLOGY,"1436 Broadway,FL #1",11557,11557,40.6379,-73.692
1436 BROADWAY NEUROSURGERY,1436 Broadway,11557,11557,40.6379,-73.692
1436 BROADWAY RMTI LIVER DISEASE,1436 BROADWAY,11557,11557,40.6379,-73.692
1436 BROADWAY RMTI TRANSPLANT KIDNEY,1436 BROADWAY,11557,11557,40.6379,-73.692
1436 BROADWAY RMTI TRANSPLANT LIVER,1436 BROADWAY,11557,11557,40.6379,-73.692
X_1436 BROADWAY ENDOCRINOLOGY_DEACTIVATED,1436 BROADWAY,11557,11557,40.6379,-73.692
1436 BROADWAY HEPATOBILIARY SURGERY,1436 Broadway,11557-1405,11557,40.6379,-73.692
1436 BROADWAY INTERNAL MEDICINE,1436 BROADWAY,11557-1405,11557,40.6379,-73.692
1436 BROADWAY LIVER MEDICINE,1436 BROADWAY,11557-1405,11557,40.6379,-73.692
1436 BROADWAY NEUROLOGY,1436 BROADWAY,11557-1405,11557,40.6379,-73.692
1436 BROADWAY OBGYN,1436 Broadway,11557-1405,11557,40.6379,-73.692
1436 BROADWAY PEDIATRICS,1436 BROADWAY,11557-1405,11557,40.6379,-73.692
1436 BROADWAY PEDS GASTRO,1436 BROADWAY,11557-1405,11557,40.6379,-73.692
1436 BROADWAY PULMONARY MEDICINE,1436 BROADWAY,11557-1405,11557,40.6379,-73.692
1436 BROADWAY RMTI LIVER SURGERY,1436 BROADWAY,11557-1405,11557,40.6379,-73.692
1436 BROADWAY VACCINE POD,1436 Broadyway,11557-1405,11557,40.6379,-73.692
X_207 GLEN COVE AVE GASTROENTEROLOGY_DEACTIVATED,207 Glen Cove Ave,11579,11579,40.8441,-73.6435
X_207 GLEN COVE RD GASTROENTEROLOGY_DEACTIVATED,207 Glen Cove Ave,11579,11579,40.8441,-73.6435
X_66 COMMACK RD INTERNAL MEDICINE_DEACTIVATED,66 Commack Road,11725-3405,11725,40.8403,-73.2809
5 CUBA HILL ALLERGY,5 Cuba Hill Road,11740,11740,40.8652,-73.3617
5 CUBA HILL CARDIOLOGY,5 Cuba Hill Road,11740,11740,40.8652,-73.3617
5 CUBA HILL DERMATOLOGY,5 Cuba Hill Road,11740,11740,40.8652,-73.3617
5 CUBA HILL ENDOCRINOLOGY,5 Cuba Hill Road,11740,11740,40.8652,-73.3617
5 CUBA HILL GASTROENETEROLOGY,5 Cuba Hill Road,11740,11740,40.8652,-73.3617
5 CUBA HILL HEM ONC,5 Cuba Hill Road,11740,11740,40.8652,-73.3617
5 CUBA HILL INTERNAL MEDICINE,5 Cuba Hill Road,11740,11740,40.8652,-73.3617
5 CUBA HILL LABORATORY,5 Cuba Hill Road,11740,11740,40.8652,-73.3617
5 CUBA HILL MDVIP INTERNAL MEDICINE,5 Cuba Hill Road,11740,11740,40.8652,-73.3617
5 CUBA HILL NEPHROLOGY,5 Cuba Hill Road,11740,11740,40.8652,-73.3617
5 CUBA HILL NEUROLOGY,5 Cuba Hill Road,11740,11740,40.8652,-73.3617
5 CUBA HILL OB/GYN,5 Cuba Hill Road,11740,11740,40.8652,-73.3617
5 CUBA HILL OPHTHALMOLOGY,5 Cuba Hill Road,11740,11740,40.8652,-73.3617
5 CUBA HILL ORTHOPAEDICS,5 Cuba Hill Road,11740,11740,40.8652,-73.3617
5 CUBA HILL ORTHOPAEDICS SESSIONAL,5 Cuba Hill Road,11740,11740,40.8652,-73.3617
5 CUBA HILL PAIN MANAGEMENT,5 Cuba Hill Road,11740,11740,40.8652,-73.3617
5 CUBA HILL PEDIATRICS,5 Cuba Hill Road,11740,11740,40.8652,-73.3617
5 CUBA HILL PEDS GASTROENTEROLOGY,5 Cuba Hill Road,11740,11740,40.8652,-73.3617
5 CUBA HILL PODIATRY,5 Cuba Hill Road,11740,11740,40.8652,-73.3617
5 CUBA HILL PULMONARY,5 Cuba Hill Road,11740,11740,40.8652,-73.3617
5 CUBA HILL RD GYN,5 Cuba Hill Road,11740,11740,40.8652,-73.3617
5 CUBA HILL RD UROLOGY,5 Cuba Hill Road,11740,11740,40.8652,-73.3617
5 CUBA HILL RHEUMATOLOGY,5 Cuba Hill Road,11740,11740,40.8652,-73.3617
5 CUBA HILL RMTI LIVER DISEASE,5 Cuba Hill Road,11740,11740,40.8652,-73.3617
5 CUBA HILL SURGERY,5 Cuba Hill Road,11740,11740,40.8652,-73.3617
5 CUBA HILL TRANSPLANT KIDNEY,5 Cuba Hill Road,11740,11740,40.8652,-73.3617
5 CUBA HILL TRANSPLANT LIVER,5 Cuba Hill Road,11740,11740,40.8652,-73.3617
5 CUBA HILL NEUROSURGERY,5 CUBA HILL RD,11740-1624,11740,40.8652,-73.3617
5 CUBA HILL RMTI PEDS LIVER DISEASE,5 CUBA HILL ROAD,11740-1624,11740,40.8652,-73.3617
5 CUBA HILL RMTI PEDS LIVER TRANSPLANT,5 CUBA HILL ROAD,11740-1624,11740,40.8652,-73.3617
5 CUBA HILL THERAPEUTIC INFUSION,5 CUBA HILL RD,11740-1624,11740,40.8652,-73.3617
510 BROADHOLLOW SURG COLORECTAL,510 Broadhollow Rd,11747,11747,40.7841,-73.4098
59 SOUTHERN BLVD ENDORCINOLOGY,59 SOUTHERN BLVD,11767,11767,40.8439,-73.1437
59 SOUTHERN BLVD INTERNAL MED,59 SOUTHERN BLVD,11767,11767,40.8439,-73.1437
59 SOUTHERN BLVD NEPHROLOGY,59 SOUTHERN BLVD,11767,11767,40.8439,-73.1437
59 SOUTHERN BLVD OBGYN,59 SOUTHERN BLVD,11767,11767,40.8439,-73.1437
59 SOUTHERN BLVD ORTHOPAEDICS,59 SOUTHERN BLVD,11767,11767,40.8439,-73.1437
59 SOUTHERN BLVD PODIATRY,59 SOUTHERN BLVD,11767,11767,40.8439,-73.1437
59 SOUTHERN BLVD RHEUMATOLOGY,59 SOUTHERN BLVD,11767,11767,40.8439,-73.1437
59 SOUTHERN BLVD UROLOGY,59 SOUTHERN BLVD,11767,11767,40.8439,-73.1437
59 SOUTHERN BOULEVARD PULMONARY,59 SOUTHERN BLVD,11767,11767,40.8439,-73.1437
61 SOUTHERN BLVD CARDIOLOGY,61 SOUTHERN BLVD,11767,11767,40.8439,-73.1437
61 SOUTHERN BLVD GASTROENTEROLOGY,61 SOUTHERN BLVD,11767,11767,40.8439,-73.1437
500 MONTAUK HWY CARDIOLOGY,500 Montauk Highway,11795,11795,40.7093,-73.2983
625 N FLAGLER DRIVE CARDIOLOGY,625 N. FLAGLER DR,33401,33401,26.719,-80.0699
625 N FLAGLER DRIVE INTERNAL MEDICINE,625 N. FLAGLER DR,33401,33401,26.719,-80.0699
X_625 N FLAGLER DRIVE DERMATOLOGY_DEACTIVATED,625 N. FLAGLER DR,33401,33401,26.719,-80.0699
X_625 N FLAGLER DRIVE ENDOCRINOLOGY_DEACTIVATED,625 N. FLAGLER DR,33401,33401,26.719,-80.0699
X_625 N FLAGLER DRIVE PULMONARY_DEACTIVATED,625 N. FLAGLER DR,33401,33401,26.719,-80.0699
575 FERN ST CARDIOLOGY,575 Fern St,33401-5725,33401,26.719,-80.0699
575 FERN ST DERMATOLOGY,575 FERN ST,33401-5725,33401,26.719,-80.0699
575 FERN ST INTERNAL MEDICINE,575 FERN ST,33401-5725,33401,26.719,-80.0699
600 UNIVERSITY BLVD CARDIOLOGY,600 UNIVERSITY BLVD,33458,33458,26.9373,-80.1314
600 UNIVERSITY BLVD PULMONARY,600 UNIVERSITY BLVD,33458,33458,26.9373,-80.1314
600 UNIVERSITY BLVD INTERNAL MEDICINE,600 UNIVERSITY BLVD,33458-2778,33458,26.9373,-80.1314
